County,License Number,Operation Type,Establishment Type,Entity Name,DBA Name,Street Number,Street Name,Address Line 2,Address Line 3,City,State,Zip Code,Square Footage,Longitude,Latitude,Street Address
Kings,751178,Store,JAC,HATZLACHA SUPERMARKET INC,HATZLACHA SUPERMARKET,744,BEDFORD AVE,,,BROOKLYN,NY,11205,10000,-73.956925,40.69843,744 BEDFORD AVE
New York,750527,Store,JAC,WEST END BROOKLYN FARE LLC,BROOKLYN FARE,75,WEST END AVE.,,,NEW YORK,NY,10023,21000,-73.988737,40.774021,75 WEST END AVE.
Queens,750509,Store,JAC,SUBZI BAZAAR NY II INC,SUBZI BAZAAR,42-92,MAIN STREET,,,FLUSHING,NY,11355,8200,-73.827092,40.752806,42-92 MAIN STREET
Kings,750408,Store,JAC,EMILIOS FOOD CORP,TONYS STOP & SAVE SUPER,1161,SUTTER AVENUE,,,BROOKLYN,NY,11208,5000,-73.875104,40.672329,1161 SUTTER AVENUE
Queens,750387,Store,JAC,WONDERFUL MARKET PLACE INC,WONDERFUL MARKET PLACE,137-35,ELDER AVE,,,FLUSHING,NY,11355,8000,-73.825383,40.751193,137-35 ELDER AVE
Kings,750245,Store,JAC,FARM TO PEOPLE LLC,FARM TO PEOPLE,1100,FLUSHING AVE,,,BROOKLYN,NY,11237,17000,-73.927108,40.705367,1100 FLUSHING AVE
Kings,750011,Store,JAC,LM III INC,LINCOLN MARKET,1134,FULTON ST,,,BROOKLYN,NY,11216,12000,-73.955105,40.681012,1134 FULTON ST
Queens,749972,Store,JAC,A&E SUPERMARKET INC,A&E SUPERMARKET,117-31,FARMERS BLVD,,,SAINT ALBANS,NY,11412,5000,-73.76227,40.690691,117-31 FARMERS BLVD
Queens,748733,Store,JAC,ROSENTHAL WINE MERCHANTS(NY) LTD,MAD ROSE,56-43,58TH STREET,,,MASPETH,NY,11378,10000,-73.912494,40.724393,56-43 58TH STREET
Bronx,748678,Store,JAC,1434 FOOD CO LLC,SUPERFRESH KEY FOOD,1434,JEROME AVENUE,,,BRONX,NY,10452,14000,-73.91711,40.841029,1434 JEROME AVENUE
Kings,748587,Store,JAC,TARGET CORP,TARGET STORE T-3356,8973-95,BAY PKWY,,,BROOKLYN,NY,11214,20000,-74.001722,40.594251,8973-95 BAY PKWY
Queens,748474,Store,JAC,134 LIBERTY AVE LLC,APNA BAZAR FARMERS MKT,134-02,LIBERTY AVE,,,SOUTH RICHMOND HIL,NY,11419,10000,-73.812546,40.691453,134-02 LIBERTY AVE
Kings,748317,Store,JAC,MELCCA INC,MELCCA SUPERMARKET,268,KNICKERBOCKER AVE,,,BROOKLYN,NY,11237,5000,-73.924496,40.702296,268 KNICKERBOCKER AVE
Queens,748307,Store,JAC,JAMAICA FINEST MEAT CORP,GREEN VALLEY SUPERMARKE,85-08,JAMAICA AVE,,,WOODHAVEN,NY,11421,5000,-73.859013,40.692526,85-08 JAMAICA AVE
Bronx,747990,Store,JAC,ST MEAT & GROCERY INC,FOOD FAIR FRESH MARKET,2467,JEROME AVE,,,BRONX,NY,10468,15000,-73.900702,40.863234,2467 JEROME AVE
Queens,747912,Store,JAC,RAM UNION INC,RAM UNION,176-19,UNION TPKE,,,FRESH MEADOWS,NY,11366,8000,-73.792555,40.725618,176-19 UNION TPKE
Queens,747761,Store,JAC,109-03 LIBERTY AVENUE REALTY CORP,K TOWN SUPERMARKET,109-01,LIBERTY AVE,,,SOUTH RICHMOND HIL,NY,11419,17000,-73.832726,40.684119,109-01 LIBERTY AVE
New York,747589,Store,JAC,MARS RETAIL GROUP INC,M & M WORLD NYC,1600,BROADWAY,,,NEW YORK,NY,10019,20000,-73.984742,40.760291,1600 BROADWAY
Kings,747329,Store,JAC,509 MEAT CORP,URBAN MARKET PARK SLOPE,509,5TH AVENUE,,,BROOKLYN,NY,11215,7000,-73.98808,40.667039,509 5TH AVENUE
Kings,747272,Store,JAC,20TH AVE SUPERMARKET INC,20TH AVE SUPERMARKET,8506,20TH AVE,,,BROOKLYN,NY,11214,10000,-73.997715,40.605127,8506 20TH AVE
Kings,747248,Store,JAC,URTH MARKET LLC,MARKET ON KENT,921,MANHATTAN AVENUE,,,BROOKLYN,NY,11222,6000,-73.954364,40.730799,921 MANHATTAN AVENUE
Bronx,747053,Store,JAC,BROOK MEAT & PRODUCE CORP,SHOP FAIR,228,BROOK AVENUE,,,BRONX,NY,10454,10000,-73.919575,40.807079,228 BROOK AVENUE
Kings,746931,Store,JAC,ALOE FRUITS LLC,ALOE FRUITS,120,UNION AVE,,,BROOKLYN,NY,11206,5000,-73.950211,40.704181,120 UNION AVE
Queens,746918,Store,JAC,EJ MEAT MARKET CORP,MANGO HILLS,290,BEACH 145TH STREET,,,FAR ROCKAWAY,NY,11691,8000,-73.861375,40.571658,290 BEACH 145TH STREET
Bronx,746886,Store,JAC,MIANDAV FOOD CORP,FOOD UNIVERSE MARKET PL,1187,JEROME AVENUE,,,BRONX,NY,10452,8000,-73.923063,40.83567,1187 JEROME AVENUE
Queens,746845,Store,JAC,US 1 SUPERMARKET INC,US 1 SUPERMARKET,39-12,MAIN STREET,,,FLUSHING,NY,11354,22000,-73.830291,40.759791,39-12 MAIN STREET
Kings,746637,Store,JAC,BEYOND NATURAL MARKET INC,BEYOND NATURAL MARKET,195,MONTROSE AVE,,,BROOKLYN,NY,11206,10000,-73.941537,40.707499,195 MONTROSE AVE
Queens,746580,Store,JAC,109 DELI & GRILL CORP,109 DELI & GRILL,10902,GUY R BREWER BLVD,,,JAMAICA,NY,11433,12500,-73.789998,40.69486,10902 GUY R BREWER BLVD
Queens,746484,Store,JAC,6401 MEAT & PRODUCE CORP,C TOWN SUPERMARKET,64-01,FRESH POND RD,,,RIDGEWOOD,NY,11385,15000,-73.899204,40.710102,64-01 FRESH POND RD
Queens,746351,Store,JAC,J & H FARMERS MARKET CORP,JOHN'S FARM MARKET,112-55,FARMERS BLVD,,,SAINT ALBANS,NY,11412,10000,-73.7632,40.69961,112-55 FARMERS BLVD
Queens,746256,Store,JAC,SWADESHBD RX INC,QUEENS VALLEY PHARMACY,170-25,HILLSIDE AVE,,,JAMAICA,NY,11432,5000,-73.793337,40.710642,170-25 HILLSIDE AVE
Bronx,746173,Store,JAC,183 MEAT CORP,FOOD UNIVERSE MARKETPLA,60,WEST 183RD STREET,,,BRONX,NY,10453,8000,-73.906094,40.859129,60 WEST 183RD STREET
Bronx,746009,Store,JAC,MARCELO FOOD CORP,BRAVO SUPERMARKET,309,E BURNSIDE AVENUE,,,BRONX,NY,10457,7000,-73.901285,40.850686,309 E BURNSIDE AVENUE
Kings,745983,Store,JAC,WILD EAST BREWING CO LLC,WILD EAST BREWING CO,623,SACKETT ST,,,BROOKLYN,NY,11217,7000,-73.983526,40.678404,623 SACKETT ST
Kings,745747,Store,JAC,KF ENNIS 86 LLC,FOOD UNIVERSE MARKET PL,1982-84,86TH STREET,,,BROOKLYN,NY,11214,6500,-73.998556,40.604789,1982-84 86TH STREET
Queens,745691,Store,JAC,JACKSON Q PLAZA LLC,CITY ACRES MARKET,29-18,QUEENS PLAZA SOUTH,,,LONG ISLAND CITY,NY,11101,19000,,,29-18 QUEENS PLAZA SOUTH
Queens,745667,Store,JAC,103-09 LIBERTY FOOD CORP,MARKET PLACE SUPERMARKE,103-09,LIBERTY AVE,,,OZONE PARK,NY,11417,15000,-73.837311,40.681849,103-09 LIBERTY AVE
Queens,745494,Store,JAC,CROWN ROSARIO GROUP INC,C TOWN SUPERMARKET,115-34,SUTPHIN BLVD,,,JAMAICA,NY,11434,6000,-73.792561,40.683891,115-34 SUTPHIN BLVD
New York,745486,Store,JAC,2395 CDM MEAT & PRODUCE CORP,C-TOWN SUPERMARKET,2395,FREDERICK DOUGLASS BLVD,,,NEW YORK,NY,10027,7300,-73.949581,40.81234,2395 FREDERICK DOUGLASS BLVD
Queens,745471,Store,JAC,NARWHAL LLC,FINBACK,78-01,77TH AVE,,,RIDGEWOOD,NY,11385,6000,-73.872489,40.706689,78-01 77TH AVE
Queens,745361,Store,JAC,DSCC VENTURES LLC,FIFTH HAMMER BREWING CO,28-Oct,46TH AVENUE,,,LONG ISLAND CITY,NY,11101,5000,-73.951494,40.746644,44862 46TH AVENUE
New York,745352,Store,JAC,1331 MEAT & PRODUCE CORP,SHOP FAIR,1331,ST NICHOLAS AVE,,,NEW YORK,NY,10033,10000,,,1331 ST NICHOLAS AVE
Queens,745120,Store,JAC,LITTLE NECK SUPERMARKET INC,LITTLE NECK SUPERMARKET,25445,HORACE HARDING EXPY,,,LITTLE NECK,NY,11362,8500,-73.726035,40.764136,25445 HORACE HARDING EXPY
Bronx,745003,Store,JAC,WESTERN BEEF RETAIL INC,WESTERN BEEF,3629,WHITE PLAINS ROAD,,,BRONX,NY,10467,20000,-73.865153,40.880183,3629 WHITE PLAINS ROAD
Kings,744820,Store,JAC,409 FOOD CORP,FOOD TOWN,409,5TH AVE,,,BROOKLYN,NY,11215,8000,-73.985493,40.670133,409 5TH AVE
Kings,744812,Store,JAC,E & H SEAFOOD & MEAT MARKET INC,E & H SEAFOOD & MEAT MA,1805-1811,AVENUE U,,,BROOKLYN,NY,11229,21000,-73.953157,40.599203,1805-1811 AVENUE U
Kings,744650,Store,JAC,JRI FLATLAND FOOD CORP,FOOD WORLD SUPERMARKET,937,E 107TH ST,,,BROOKLYN,NY,11236,10000,-73.892494,40.647729,937 E 107TH ST
Queens,744447,Store,JAC,HEMPSTEAD AVENUE FOOD LLC,C-TOWN,218-51,HEMPSTEAD AVENUE,,,QUEENS VILLAGE,NY,11429,7500,-73.736394,40.713521,218-51 HEMPSTEAD AVENUE
Kings,744361,Store,JAC,781 METROPOLITAN FOOD CORP,BROOKLYN HARVEST MARKET,781,METROPOLITAN AVENUE,,,BROOKLYN,NY,11211,9000,-73.943046,40.714658,781 METROPOLITAN AVENUE
Queens,744274,Store,JAC,MANN GROCERY LLC,APNA BAZARFARMERS MKT,116-19,101ST,,,SOUTH RICHMOND HIL,NY,11419,42000,-73.82786,40.689431,116-19 101ST
Queens,744266,Store,JAC,H MART NORTHERN BLVD LLC,H MART,144-74,NORTHERN BLVD,,,FLUSHING,NY,11354,8000,-73.820845,40.764925,144-74 NORTHERN BLVD
Bronx,743955,Store,JAC,4401 FOOD LLC,MET FOOD,4401,WHITE PLAINS RD,,,BRONX,NY,10470,9000,-73.85417,40.898634,4401 WHITE PLAINS RD
Queens,743868,Store,JAC,BOGOPA DOUGLASTON LLC,FOOD BAZAAR,242-02,61ST AVE,,,LITTLE NECK,NY,11362,43000,-73.738633,40.755527,242-02 61ST AVE
Queens,743776,Store,JAC,JAY FOOD CORP,BRAVO SUPERMARKET,144-28,LAKEWOOD AVE,,,JAMAICA,NY,11435,7000,-73.803374,40.689848,144-28 LAKEWOOD AVE
Kings,743767,Store,JAC,GREEN FOREST LLC,GREEN FOREST,1717,KINGS HWY,,,BROOKLYN,NY,11229,10000,-73.955856,40.609833,1717 KINGS HWY
Bronx,743704,Store,JAC,N R SHOP LLC,KEY FOOD SUPERMARKET,5661,RIVERDALE AVE,,,BRONX,NY,10471,20000,-73.904294,40.906171,5661 RIVERDALE AVE
Kings,743494,Store,JAC,1291 FOOD CORP,FOOD TOWN,1291,BROADWAY,,,BROOKLYN,NY,11221,15000,-73.923972,40.690583,1291 BROADWAY
Kings,743453,Store,JAC,JACKS MARKET LLC,JACK'S MARKET,268,KNICKERBOCKER AVENUE,,,BROOKLYN,NY,11237,5000,-73.924496,40.702296,268 KNICKERBOCKER AVENUE
Kings,743448,Store,JAC,SEVEN SEAS GEORGETOWNE LLC,FOOD WAY,2149,RALPH AVE,,,BROOKLYN,NY,11234,40000,-73.917834,40.625477,2149 RALPH AVE
New York,743396,Store,JAC,4138 BROADWAY FOOD LLC,FOOD EMPORIUM,4138,BROADWAY,,,NEW YORK,NY,10033,5000,-73.938515,40.846018,4138 BROADWAY
Queens,743314,Store,JAC,243 FOOD LLC,ASSOCIATED,143-60,243RD STREET,,,ROSEDALE,NY,11422,9000,-73.739099,40.660642,143-60 243RD STREET
Richmond,743129,Store,JAC,PLUM TOMATO INC,TOP TOMATO,1071,BAY ST,,,STATEN ISLAND,NY,10305,10000,-74.068415,40.61719,1071 BAY ST
Kings,743044,Store,JAC,LINDEN FARMS FOOD CORP,FARM COUNTRY,2205,LINDEN BLVD,,,BROOKLYN,NY,11207,25000,-73.88157,40.662654,2205 LINDEN BLVD
New York,742990,Store,JAC,WHOLE FOODS MARKET GROUP INC,WHOLE FOODS MARKET,450,W 33RD ST,,,NEW YORK,NY,10001,40000,-73.998977,40.753648,450 W 33RD ST
New York,742909,Store,JAC,VSM NY HOLDINGS LLC,FAIRWAY MARKET OF CHELS,766,6TH AVE,,,NEW YORK,NY,10010,20000,-73.991763,40.744324,766 6TH AVE
New York,742907,Store,JAC,VSM NY HOLDINGS LLC,FAIRWAY MARKET OF 86TH,240,E 86TH ST,,,NEW YORK,NY,10028,40000,-73.952267,40.778101,240 E 86TH ST
New York,742906,Store,JAC,VSM NY HOLDINGS LLC,FAIRWAY MARKET OF 74TH,2131,BROADWAY,,,NEW YORK,NY,10023,25000,-73.981483,40.780825,2131 BROADWAY
Richmond,742882,Store,JAC,GREAT KILLS TOMATO INC,TOP TOMATO,4045,AMBOY ROAD,,,STATEN ISLAND,NY,10308,8000,-74.151325,40.549527,4045 AMBOY ROAD
New York,742688,Store,JAC,IVORY & WHITE MARKETS INC,MORTON WILLIAMS SUPERMA,15,WEST END AVENUE,,,NEW YORK,NY,10023,10000,-73.990135,40.772078,15 WEST END AVENUE
Queens,742643,Store,JAC,5265 FOOD MARKET LLC,MARKET FRESH SUPERMARKE,52-65,65TH PLACE,,,MASPETH,NY,11378,5000,-73.900133,40.731662,52-65 65TH PLACE
Bronx,742486,Store,JAC,TEJADA MEAT CORP,MET FOOD MARKET,649,JACKSON AVE,,,BRONX,NY,10455,8000,-73.908264,40.815562,649 JACKSON AVE
Bronx,742478,Store,JAC,JML&J FOOD CORP,C TOWN SUPERMARKET,229,E.TREMONT AVE,,,BRONX,NY,10457,15000,-73.904672,40.849061,229 E.TREMONT AVE
Queens,742342,Store,JAC,ELMHURST SUPERMARKET INC,SF SUPERMARKET,45-16,83RD ST.,,,ELMHURST,NY,11373,13030,-73.881645,40.741285,45-16 83RD ST.
Queens,742198,Store,JAC,METROPOLITAN FOOD CORP,ANGIES MARKET,100-27,METROPOLITAN AVENUE,,,FOREST HILLS,NY,11375,7000,-73.852474,40.710718,100-27 METROPOLITAN AVENUE
Bronx,742159,Store,JAC,1481 P & B CORPORATION,FINE FARE SUPERMARKET,1481,BEACH AVE,,,BRONX,NY,10460,6000,-73.867255,40.837464,1481 BEACH AVE
Richmond,742049,Store,JAC,TARGET CORP,TARGET STORE T-3291,1520,FOREST AVE,,,STATEN ISLAND,NY,10302,46000,-74.139643,40.62438,1520 FOREST AVE
Kings,741859,Store,JAC,LAFAYETTE MARKET INC,THE FOOD EMPORIUM,325,LAFAYETTE AVE,,,BROOKLYN,NY,11238,13500,-73.962603,40.688574,325 LAFAYETTE AVE
Kings,741811,Store,JAC,2869 MEAT & PRODUCE CORP,C-TOWN SUPERMARKET,2869,FULTON STREET,,,BROOKLYN,NY,11207,5000,-73.888492,40.678717,2869 FULTON STREET
Bronx,741448,Store,JAC,2185 ANTILLANA MEAT & FOOD CORP,ANTILLANA SUPERFOOD MAR,2185,WHITE PLAINS RD,,,BRONX,NY,10462,6000,-73.867667,40.85625,2185 WHITE PLAINS RD
New York,741439,Store,JAC,MULBERRY MARKET INC,MULBERRY MARKET,251,MULBERRY STREET,,,NEW YORK,NY,10012,10000,-73.995775,40.723169,251 MULBERRY STREET
Bronx,741390,Store,JAC,2285 GROCERY & FOOD CORP/ANTILLAN,ANTILLANA SUPERFOOD MAR,2285,GRAND CONCOURSE,,,BRONX,NY,10453,7000,-73.900366,40.857069,2285 GRAND CONCOURSE
New York,741374,Store,JAC,PLATINUM & WHITE INC,MORTON WILLIAMS,1251,3RD AVENUE,,,NEW YORK,NY,10021,10000,-73.960459,40.769961,1251 3RD AVENUE
Queens,741344,Store,JAC,MANNAN SUPERMARKET INC,ABDULLAH SUPERMARKET,74-16,101ST AVE,,,OZONE PARK,NY,11416,5000,-73.862539,40.679563,74-16 101ST AVE
Kings,741309,Store,JAC,7002 13TH AVENUE MEAT LLC,SUPERFRESH,7002,13TH AVENUE,,,BROOKLYN,NY,11228,10000,-74.004735,40.622906,7002 13TH AVENUE
New York,741134,Store,JAC,1316 CORP,FOODTOWN,1316,AMSTERDAM AVENUE,,,NEW YORK,NY,10027,15000,-73.957088,40.812259,1316 AMSTERDAM AVENUE
New York,741121,Store,JAC,TICHITA LLC,BARNYARD CHEESE SHOP,168,AVENUE B,,,NEW YORK,NY,10009,5000,-73.979665,40.727179,168 AVENUE B
Kings,741120,Store,JAC,SKYLIGHT HOLDINGS 5 INC,C-TOWN,237-243,AVENUE U,,,BROOKLYN,NY,11223,10000,-73.975433,40.596741,237-243 AVENUE U
New York,741004,Store,JAC,HERSHEY COMPANY INC THE,HERSHEYS TIMES SQUARE,701,7TH AVE.,,,NEW YORK,NY,10036,8000,-73.984535,40.759322,701 7TH AVE.
Queens,740941,Store,JAC,TONGI BAZAR INC,KAWRAN BAZAR,168-25,HILLSIDE AVD,,,JAMAICA,NY,11432,5000,-73.794139,40.710305,168-25 HILLSIDE AVD
Kings,740672,Store,JAC,608 FRANKLIN MEAT CORP,FOOD GARDEN MARKET,608,FRANKLIN AVE,,,BROOKLYN,NY,11238,16000,-73.955469,40.67757,608 FRANKLIN AVE
Kings,740370,Store,JAC,GOLD ORGANIC FARM INC,GOLD ORGANIC FARM,277,GOLD STREET,,,BROOKLYN,NY,11201,27000,,,277 GOLD STREET
Bronx,740339,Store,JAC,MPK FOOD CORP,MET FRESH,775-777,MORRIS PARK AVE,,,BRONX,NY,10462,15000,-73.863196,40.845828,775-777 MORRIS PARK AVE
Kings,740326,Store,JAC,EVERGREEN FARMERS MARKET CORP,EVERGREEN FARMERS MARKE,7802,5TH AVENUE,,,BROOKLYN,NY,11209,21000,-74.02356,40.6272,7802 5TH AVENUE
Queens,740315,Store,JAC,FRESH POND GOURMET DELI CORP,FRESH POND GOURMET DELI,6620,FRESH POND ROAD,,,RIDGEWOOD,NY,11385,12000,-73.898106,40.708542,6620 FRESH POND ROAD
Kings,740242,Store,JAC,BAKIR INC,LINCOLN MARKET,633,MARCY AVENUE,,,BROOKLYN,NY,11206,5000,,,633 MARCY AVENUE
New York,739655,Store,JAC,175 CLINTON STREET LLC,METRO ACRES MARKET,175,CLINTON STREET,,,NEW YORK,NY,10002,10000,-73.986958,40.715552,175 CLINTON STREET
Kings,739569,Store,JAC,HL SUPERMARKET INC,HL SUPERMARKET,6722,FORT HAMILTON PKWY,,,BROOKLYN,NY,11219,30000,-74.011185,40.629323,6722 FORT HAMILTON PKWY
New York,739553,Store,JAC,123 ST NICHOLAS FOOD CORP,FRANCO SUPERMARKET,1272-1278,ST. NICHOLAS AVE,,,NEW YORK,NY,10033,8000,-73.937233,40.844531,1272-1278 ST. NICHOLAS AVE
Kings,739483,Store,JAC,ORGANIC FOOD STOP CORP,ORGANIC FOOD STOP,585,VANDERBILT AVE.,,,BROOKLYN,NY,11238,8000,-73.967992,40.680042,585 VANDERBILT AVE.
New York,739426,Store,JAC,VSM GOURMET LLC,GOURMET GARAGE,155,WEST 66TH,,,NEW YORK,NY,10023,10000,-73.983294,40.774327,155 WEST 66TH
New York,739425,Store,JAC,VSM GOURMET LLC,GOURMET GARAGE,489,BROOME STREET,,,NEW YORK,NY,10013,8400,-74.002574,40.72312,489 BROOME STREET
New York,739423,Store,JAC,VSM GOURMET LLC,GOURMET GARAGE,366,BROADWAY,,,NEW YORK,NY,10013,12000,-74.003436,40.717556,366 BROADWAY
Queens,739415,Store,JAC,HUA LIAN SUPERMARKET INC,HUA LIAN SUPERMARKET,25-03,PARSONS BLVD,,,FLUSHING,NY,11354,27000,-73.824434,40.77603,25-03 PARSONS BLVD
Kings,739221,Store,JAC,WEGMANS FOOD MARKETS INC,WEGMANS FOOD MARKETS #1,21,FLUSHING AVE,,,BROOKLYN,NY,11205,7350,,,21 FLUSHING AVE
Queens,738927,Store,JAC,D&Z SUPERMARKET CORP,D&Z SUPERMARKET,77-00,QUEENS BLVD,,,ELMHURST,NY,11373,7000,-73.886199,40.738234,77-00 QUEENS BLVD
Queens,738893,Store,JAC,ABC MEAT CORP,KEY FOOD # 2468,90-28,JAMAICA AVENUE,,,WOODHAVEN,NY,11421,7500,-73.853819,40.693041,90-28 JAMAICA AVENUE
Queens,738883,Store,JAC,ALEC FOOD CORP,C TOWN,59-15,ROOSEVELT AVE,,,WOODSIDE,NY,11377,10000,-73.904671,40.745454,59-15 ROOSEVELT AVE
Kings,738742,Store,JAC,GOURMET FRESH 2 LLC,GOURMET FRESH 2,530,86TH STREET,,,BROOKLYN,NY,11209,8000,-74.025161,40.620851,530 86TH STREET
New York,738741,Store,JAC,M2M ALUMNI HALL CORP,H MART,39,3RD AVE,,,NEW YORK,NY,10003,5000,-73.989274,40.730418,39 3RD AVE
Richmond,738721,Store,JAC,BAY STREET EXTRA LLC,WESTERN BEEF SUPERMARKE,425,BAY STREET,,,STATEN ISLAND,NY,10304,30000,-74.075953,40.631864,425 BAY STREET
Bronx,738539,Store,JAC,ROYAL REAL INC,BRAVO SUPERMARKET,745,WESTCHESTER AVENUE,,,BRONX,NY,10455,10000,-73.905499,40.817839,745 WESTCHESTER AVENUE
Queens,738508,Store,JAC,WHITESTONE MARKET INC,MET FRESH MARKET,24-11,150TH STREET,,,WHITESTONE,NY,11357,18000,-73.814807,40.776857,24-11 150TH STREET
Bronx,738421,Store,JAC,WILL GROCERY & MEAT INC,PIONEER SUPERMARKET,250,WILLIS AVE,,,BRONX,NY,10454,10000,-73.922667,40.809422,250 WILLIS AVE
Kings,738297,Store,JAC,597 LIVONIA MEAT CORP,ASSOCIATED FRESH,597,LIVONIA AVENUE,,,BROOKLYN,NY,11207,8000,-73.895096,40.664598,597 LIVONIA AVENUE
Bronx,738086,Store,JAC,NEW RENAISSANCE INC,CTOWN FRESH MARKET,411,EAST TREMONT AVE UNIT 3C,,,BRONX,NY,10457,5000,-73.900501,40.847607,411 EAST TREMONT AVE UNIT 3C
Kings,737841,Store,JAC,SAHADIS LLC,SAHADIS,34,35TH STREET,,,BROOKLYN,NY,11232,7000,-74.007655,40.657188,34 35TH STREET
Bronx,737803,Store,JAC,2343 JEROME FOOD CORP,FOOD DYNASTY SUPERMARKE,2343,JEROME AVE,,,BRONX,NY,10468,7500,-73.903226,40.85946,2343 JEROME AVE
Kings,737646,Store,JAC,777 FOOD CORP,777 FOOD,531,BLAKE AVE,,,BROOKLYN,NY,11207,5000,-73.89918,40.667185,531 BLAKE AVE
New York,737606,Store,JAC,A&J MEAT MARKET INC,SHOP FAIR SUPERMARKET,2108,ADAM CLAYTON POWELL JR BLVD,,,NEW YORK,NY,10027,8000,-73.948053,40.809498,2108 ADAM CLAYTON POWELL JR BLVD
Bronx,737487,Store,JAC,JUARE FOOD INC,JUARE FOOD,4141,LACONIA AVE,,,BRONX,NY,10466,10000,-73.846777,40.888164,4141 LACONIA AVE
Richmond,737186,Store,JAC,778 MANOR ROAD MEAT LLC,SUPER FRESH,778,MANOR ROAD,,,STATEN ISLAND,NY,10314,8000,-74.121062,40.608099,778 MANOR ROAD
Kings,737158,Store,JAC,M & S SUPERMARKET CORP,MET FOODS,3404,QUENTIN RD,,,BROOKLYN,NY,11234,5000,-73.938034,40.61383,3404 QUENTIN RD
Kings,736984,Store,JAC,WILSON FINEST DELI GROCERY CORP,WILSON FINEST DELI GROC,83,WILSON AVE,,,BROOKLYN,NY,11237,8000,-73.927706,40.701829,83 WILSON AVE
Queens,736718,Store,JAC,NORTH SHORE FARMS WHITESTONE LTD,NORTH SHORE FARMS,153-01,10TH AVENUE,,,WHITESTONE,NY,11357,23000,-73.808229,40.793388,153-01 10TH AVENUE
Kings,736653,Store,JAC,GUMPTION COFFEE INC,GUMPTION COFFEE,168,39TH STREET,,,BROOKLYN,NY,11232,6000,-74.010794,40.655461,168 39TH STREET
Kings,736629,Store,JAC,GOLDEN BOYS GROUP INC,GOLDEN FARMS,416,CRESCENT ST,,,BROOKLYN,NY,11208,10000,-73.870739,40.678393,416 CRESCENT ST
Kings,736511,Store,JAC,W & U SUTTER GROCERY CORP,W & U SUTTER GROCERY,1342,SUTTER AVENUE,,,BROOKLYN,NY,11208,15000,-73.868281,40.673317,1342 SUTTER AVENUE
Queens,736416,Store,JAC,BEACH CHANNEL MEAT & PRODUCE CORP,SHOP FAIR SUPERMARKET,1329,BEACH CHANNEL DRIVE,,,FAR ROCKAWAY,NY,11691,10000,-73.754785,40.60615,1329 BEACH CHANNEL DRIVE
New York,736405,Store,JAC,SIREN RETAIL CORPORATION,ROASTERY AND RESERVE TA,61,9TH AVE,,,NEW YORK,NY,10011,5000,-74.005056,40.741475,61 9TH AVE
New York,736284,Store,JAC,ALV SUPERMARKET LLC,MET FRESH,119,AVENUE D,,,NEW YORK,NY,10009,13000,-73.975794,40.724029,119 AVENUE D
Kings,736228,Store,JAC,LOVE FIELD INC,SUNRISE MART,934,3RD AVENUE,,,BROOKLYN,NY,11232,5000,-74.006295,40.655903,934 3RD AVENUE
Kings,736127,Store,JAC,BUSHWICK MARKET INC,MET FRESH,1381,MYRTLE AVENUE,,,BROOKLYN,NY,11237,5500,-73.920876,40.698543,1381 MYRTLE AVENUE
Queens,736077,Store,JAC,ALMONTE GARDENS FOOD CORP,FINE FARE SUPERMARKET,145-44,FARMERS BLVD,,,JAMAICA,NY,11434,6800,-73.768141,40.664734,145-44 FARMERS BLVD
Queens,735994,Store,JAC,KW SUPERMARKET INC,KW SUPERMARKET,37-04,UNION ST,,,FLUSHING,NY,11354,5000,-73.827494,40.762386,37-04 UNION ST
Kings,735864,Store,JAC,TARGET CORPORATION,TARGET STORE T-3243,1715,E 13TH ST,,,BROOKLYN,NY,11229,35000,-73.959909,40.607552,1715 E 13TH ST
Richmond,735744,Store,JAC,LUS LICENSING LLC,LIDL #1372,283,PLATINUM AVE,,,STATEN ISLAND,NY,10314,20000,-74.167565,40.578459,283 PLATINUM AVE
Richmond,735464,Store,JAC,TORTILLERIA OAXACA II INC,TORTILLERIA OAXACA II,57,VICTORY BLVD,,,STATEN ISLAND,NY,10301,6000,-74.077777,40.638054,57 VICTORY BLVD
Kings,735279,Store,JAC,THREEFOLD HOLDINGS LLC,THREES BREWING,333,DOUGLAS STREET,,,BROOKLYN,NY,11217,8000,-73.982308,40.679527,333 DOUGLAS STREET
Kings,735257,Store,JAC,FOOD STORY NATURAL MARKET II INC,FOOD STORY NATURAL MARK,1550,MYRTLE AVE,,,BROOKLYN,NY,11237,5700,-73.911688,40.699484,1550 MYRTLE AVE
Queens,735128,Store,JAC,T & K SUPERMARKET LLC,C TOWN SUPERMARKET,195-09,JAMAICA AVE,,,HOLLIS,NY,11423,7000,-73.765658,40.71332,195-09 JAMAICA AVE
Kings,735127,Store,JAC,BERRY GOODS SUPERMARKET CORP,BERRY GOODS SUPERMARKET,1413,AVENUE J,,,BROOKLYN,NY,11230,7600,-73.961832,40.625133,1413 AVENUE J
Richmond,735121,Store,JAC,406 DELI & GROCERY INC,406 DELI & GROCERY,406,PORT RICHMOND AVE,,,STATEN ISLAND,NY,10302,5000,-74.137825,40.632109,406 PORT RICHMOND AVE
Kings,735101,Store,JAC,MP LORRAINE CORP,ASSOCIATED SUPERMARKET,58-60,LORRAINE STREET,,,BROOKLYN,NY,11231,12000,-74.007478,40.674561,58-60 LORRAINE STREET
Bronx,735052,Store,JAC,ALRA CORP,EXTRA JUMBO MARKET PLAC,1384,NELSON AVENUE,,,BRONX,NY,10452,25000,-73.922759,40.841376,1384 NELSON AVENUE
Bronx,734921,Store,JAC,JAMAICA RYTHMS FISH MARKET INC,JAMAICA RYTHMS FISH MAR,3959,BRONXWOOD AVE,,,BRONX,NY,10466,9000,-73.854924,40.885598,3959 BRONXWOOD AVE
New York,734920,Store,JAC,TARGET CORP,TARGET STORE T-3284,400,GRAND ST,,,NEW YORK,NY,10002,10000,-73.987057,40.716091,400 GRAND ST
Queens,734848,Store,JAC,NATURE FARM SUPERMARKET CORP,NATURE FARM SUPERMARKET,249-26,HORACE HARDING EXPRESSWAY,,,LITTLE NECK,NY,11362,12000,-73.730975,40.76074,249-26 HORACE HARDING EXPRESSWAY
Kings,734847,Store,JAC,PROPERFOOD LLC,PROPER FOOD,133,HARRISON PL,,,BROOKLYN,NY,11237,11000,-73.92833,40.706932,133 HARRISON PL
Queens,734717,Store,JAC,JRI FOOD CORP,KEY FOOD FRESH,171-11,LINDEN BOULEVARD,,,JAMAICA,NY,11434,10000,-73.7785,40.691836,171-11 LINDEN BOULEVARD
Queens,734552,Store,JAC,FOOD STORY NATURAL MARKET 111 INC,FOOD STORY NATURAL MARK,23-38,31ST ST,,,ASTORIA,NY,11105,8000,-73.913632,40.773757,23-38 31ST ST
Bronx,734506,Store,JAC,195 WEBSTER MEAT & PRODUCE CORP,FINE FARE,2645,WEBSTER AVENUE,,,BRONX,NY,10458,7500,-73.889025,40.863546,2645 WEBSTER AVENUE
Queens,734363,Store,JAC,G MART INC,G MART,57-03,ROOSEVELT AVE,,,WOODSIDE,NY,11377,5000,-73.907487,40.745299,57-03 ROOSEVELT AVE
New York,734145,Store,JAC,180 3RD AVE LLC,WESTSIDE MARKET,180,3RD AVE,,,NEW YORK,NY,10003,5200,-73.985943,40.734989,180 3RD AVE
Bronx,734129,Store,JAC,VILLAGE SUPER MARKET OF NY LLC,SHOPRITE OF BRUCKNER BL,1994,BRUCKNER BLVD,,,BRONX,NY,10473,45000,-73.856826,40.825952,1994 BRUCKNER BLVD
New York,733937,Store,JAC,REAL CHANCE INC THE,CITY FRESH MARKET,125,EAST 116TH STREET,,,NEW YORK,NY,10029,6000,-73.941979,40.798774,125 EAST 116TH STREET
Queens,733517,Store,JAC,AGUILAR MEAT & PRODUCE INC,KEY FOOD MARKET PLACE,155-15,AGUILAR AVE,,,FLUSHING,NY,11367,17000,-73.813015,40.728098,155-15 AGUILAR AVE
Richmond,733497,Store,JAC,TOMPKINS FOOD CORP,MARKET FRESH,570,TOMPKINS AVENUE,,,STATEN ISLAND,NY,10305,10000,-74.070997,40.612188,570 TOMPKINS AVENUE
Kings,733069,Store,JAC,A & D SUPERMARKET CORP,CITY FRESH MARKET,57,KINGSLAND AVE,,,BROOKLYN,NY,11211,5000,-73.940359,40.717995,57 KINGSLAND AVE
Bronx,733038,Store,JAC,628 MORRIS FOOD CORP,628 MORRIS FOOD,628,MORRIS AVENUE,,,BRONX,NY,10451,10000,-73.921967,40.81915,628 MORRIS AVENUE
Richmond,732807,Store,JAC,ZAYTONA HALAL SUPERMARKET INC,MECCA MARKET,2256,FOREST AVE,,,STATEN ISLAND,NY,10303,7000,-74.165154,40.627066,2256 FOREST AVE
New York,732757,Store,JAC,HANA MART COLUMBIA CORP,H MART,2828,BROADWAY,,,NEW YORK,NY,10025,6500,-73.966782,40.803895,2828 BROADWAY
Kings,732661,Store,JAC,12ST FOOD CORP,AWESOME ORGANIC MARKET,493,5TH AVE,,,BROOKLYN,NY,11215,5000,-73.987726,40.667461,493 5TH AVE
Kings,732643,Store,JAC,TAPSCOTT FINEST MEAT CORP,GREEN VILLAGE SUPERMARK,229,TAPSCOTT STREET,,,BROOKLYN,NY,11212,10000,-73.919567,40.661988,229 TAPSCOTT STREET
Kings,732353,Store,JAC,JOAN FOOD CORP,C TOWN,2115,PITKIN AVE,,,BROOKLYN,NY,11207,30000,-73.89444,40.672162,2115 PITKIN AVE
Kings,732190,Store,JAC,MIRANDA DELI FOOD CORP,MIRANDA DELI FOOD,4402,AVENUE J,,,BROOKLYN,NY,11234,30000,-73.933467,40.627825,4402 AVENUE J
Queens,731989,Store,JAC,SKYFOODS MAIN INC,TOUS MART,4228,MAIN ST,,,FLUSHING,NY,11355,7500,-73.827982,40.754649,4228 MAIN ST
Kings,731961,Store,JAC,WHOLE FOODS MARKET GROUP INC,WHOLE FOODS MARKET 365,292,ASHLAND PLACE,,,BROOKLYN,NY,11217,25000,-73.978211,40.686878,292 ASHLAND PLACE
Queens,731894,Store,JAC,HONG KONG SUPERMARKET OF FLUSHING,HONG KONG SUPERMARKET,37-11,MAIN STREET,,,FLUSHING,NY,11354,16000,-73.830943,40.761191,37-11 MAIN STREET
Bronx,731734,Store,JAC,DHAKA SUPERMARKET & HALAL MEAT IN,DHAKA SUPERMARKET & HAL,369,E 204TH STREET,,,BRONX,NY,10467,5000,-73.877366,40.871688,369 E 204TH STREET
Kings,731715,Store,JAC,739 FOOD INC,MET FOOD MARKET,739,NOSTRAND AVE,,,BROOKLYN,NY,11216,8000,-73.950287,40.672077,739 NOSTRAND AVE
Queens,731290,Store,JAC,NUTROPIA INC,NUTROPIA,105-02,MERRICK BLVD,,,JAMAICA,NY,11433,5500,-73.789577,40.700782,105-02 MERRICK BLVD
Richmond,731019,Store,JAC,VG FOOD & BEVERAGE GROUP LLC,VG FOOD & BEVERAGE GROU,250,ARLINGTON AVE,,,STATEN ISLAND,NY,10303,18000,-74.167558,40.633951,250 ARLINGTON AVE
Queens,731004,Store,JAC,RUSS INDIAN FOOD INC,REAL USHA SWEETS AND SN,259-15,HILLSIDE AVENUE,,,GLEN OAKS,NY,11004,5000,-73.708637,40.737278,259-15 HILLSIDE AVENUE
Kings,730773,Store,JAC,TARGET CORPORATION,TARGET STORE T3276,6401,18TH AVE,,,BROOKLYN,NY,11204,8000,-73.989768,40.61954,6401 18TH AVE
Kings,730571,Store,JAC,DOLGENCORP OF NEW YORK INC,DOLLAR GENERAL # 19213,1192,MYRTLE AVE,,,BROOKLYN,NY,11221,15000,-73.931114,40.69744,1192 MYRTLE AVE
Queens,730553,Store,JAC,DOLGENCORP OF NEWYORK INC,DOLLAR GENERAL # 19222,7134,MYRTLE AVE,,,RIDGEWOOD,NY,11385,5500,-73.878623,40.702126,7134 MYRTLE AVE
Queens,730378,Store,JAC,N & M EXPRESS DELI INC,N & M EXPRESS DELI,222-01,JAMAICA AVE,,,QUEENS VILLAGE,NY,11428,12000,-73.732192,40.720517,222-01 JAMAICA AVE
Kings,730294,Store,JAC,AVE U FISH MARKET INC,AVE U FISH MARKET,1406,AVENUE U,,,BROOKLYN,NY,11229,25000,-73.957049,40.598771,1406 AVENUE U
Queens,730097,Store,JAC,GOOD NEIGHBOR SUNNYSIDE SUPERMARK,GOOD NEIGHBOR SUNNYSIDE,45-60,46TH ST,,,WOODSIDE,NY,11377,5000,-73.919072,40.741318,45-60 46TH ST
Kings,730051,Store,JAC,BRIGHTON SUPER DEALS INC,BRIGHTON SUPER DEALS,100-120,BRIGHTON BEACH AVE,,,BROOKLYN,NY,11235,7000,-73.968262,40.576253,100-120 BRIGHTON BEACH AVE
New York,730049,Store,JAC,COLUMBUS NATURAL FOOD INC,COLUMBUS NATURAL FOOD,725,COLUMBUS AVE,,,NEW YORK,NY,10025,5000,-73.967827,40.792445,725 COLUMBUS AVE
Queens,730006,Store,JAC,BH KEYFOOD NY LLC,KEY FOOD,220-46,HILLSIDE AVE,,,QUEENS VILLAGE,NY,11427,12000,-73.742013,40.731084,220-46 HILLSIDE AVE
Queens,729868,Store,JAC,VILLAGE BARN LTD,VILLAGE BARN,80-05,CALDWELL AVE,,,MIDDLE VILLAGE,NY,11379,8500,-73.879175,40.72564,80-05 CALDWELL AVE
Queens,729824,Store,JAC,JANUS NEW YORK INC,BILLYS MARKETPLACE,870,CYPRESS AVE,,,RIDGEWOOD,NY,11385,10000,-73.905131,40.699483,870 CYPRESS AVE
Kings,729795,Store,JAC,REID ORGANICS LLC,HALSEY TRADERS MARKET,245,MALCOM X BLVD,,,BROOKLYN,NY,11221,7000,-73.929502,40.685169,245 MALCOM X BLVD
Kings,729307,Store,JAC,A&C SEAFOOD & MEAT MARKET INC,A&C SEAFOOD & MEAT MARK,1237,AVENUE U,,,BROOKLYN,NY,11229,7000,-73.958686,40.598589,1237 AVENUE U
Kings,729300,Store,JAC,POM GROUP INC,LINCOLN MARKET,1133,MANHATTAN AVE,,,BROOKLYN,NY,11222,8000,-73.955369,40.736939,1133 MANHATTAN AVE
New York,729261,Store,JAC,70 CEDAR PEARL LLC,CITY ACRES MARKET,70,PINE ST,,,NEW YORK,NY,10005,14000,-74.00774,40.706208,70 PINE ST
New York,729188,Store,JAC,WHOLE FOODS MARKET GROUP IN,WHOLE FOODS MARKET,100,WEST 125TH STREET,,,NEW YORK,NY,10027,40000,-73.945967,40.807981,100 WEST 125TH STREET
Kings,728967,Store,JAC,187 PRODUCE CORP,SHOP FAIR,187,TROY AVENUE,,,BROOKLYN,NY,11213,7000,-73.936315,40.672899,187 TROY AVENUE
New York,728890,Store,JAC,JANET FOOD CORP,KEY FOOD FRESH MARKET,2630,FREDERICK DOUGLASS BOULEVARD,,,NEW YORK,NY,10030,8000,-73.943905,40.820128,2630 FREDERICK DOUGLASS BOULEVARD
Kings,728804,Store,JAC,RENHE MARKET INC,JMART,8121,NEW UTRECH AVE,,,BROOKLYN,NY,11214,30000,-74.0016,40.610025,8121 NEW UTRECH AVE
Kings,728655,Store,JAC,ISAAC APPLE FARM INC,ISAAC APPLE FARM,329,CHURCH AVE,,,BROOKLYN,NY,11218,7000,-73.976658,40.643967,329 CHURCH AVE
Queens,728646,Store,JAC,MSNY MARKET INC,GW SUPERMARKET,41-79,MAIN STREET,,,FLUSHING,NY,11355,21000,-73.82846,40.755834,41-79 MAIN STREET
Kings,728626,Store,JAC,KP FARM MARKET CORP,KP FARM MARKET,1887,NOSTRAND AVE,,,BROOKLYN,NY,11226,5000,-73.948369,40.639548,1887 NOSTRAND AVE
Richmond,728406,Store,JAC,JOHN BAGEL & DELI INC,JOHN BAGEL & DELI,1174,HYLAN BLVD,,,STATEN ISLAND,NY,10305,6000,-74.081974,40.598452,1174 HYLAN BLVD
Kings,728199,Store,JAC,TANVI FOODS INC,FREDDY'S FOOD MARKET,257,DRIGGS AVE.,,,BROOKLYN,NY,11222,5500,-73.947988,40.722675,257 DRIGGS AVE.
Kings,727789,Store,JAC,MONG KOK SUPERMARKET INC,MONG KOK SUPERMARKET,1815,86TH STREET,,,BROOKLYN,NY,11214,5000,-74.00215,40.606963,1815 86TH STREET
Kings,727732,Store,JAC,TASHKENT SUPERMARKET LLC,TASHKENT SUPERMARKET,713,BRIGHTON BEACH AVE,,,BROOKLYN,NY,11235,6000,-73.959881,40.577953,713 BRIGHTON BEACH AVE
Kings,727299,Store,JAC,ITO EN (NORTH AMERICA) INC,ITO EN,34,34TH STREET  2ND FLOOR UNI,,,BROOKLYN,NY,11232,6000,-74.006898,40.657634,34 34TH STREET  2ND FLOOR UNI
New York,727280,Store,JAC,NAMDOR INC,D'AGOSTINO SUPERMARKET,165,EAST 35TH STREET STORE #550,,,NEW YORK,NY,10016,15000,-73.977953,40.746515,165 EAST 35TH STREET STORE #550
Bronx,727260,Store,JAC,FRESH DIRECT LLC,FRESH DIRECT,2,ST. ANN'S AVENUE C/O FOOD SAFET,,,BRONX,NY,10454,40000,,,2 ST. ANN'S AVENUE C/O FOOD SAFET
Kings,726740,Store,JAC,4003 CHURCH FARM MARKET INC,4003 CHURCH FARM MARKET,4003,CHURCH AVE,,,BROOKLYN,NY,11203,10000,-73.939822,40.651288,4003 CHURCH AVE
Queens,725855,Store,JAC,LGT FOOD CORP,BRAVO SUPERMARKET,24-18,34TH AVENUE,,,ASTORIA,NY,11106,10000,-73.930796,40.761331,24-18 34TH AVENUE
New York,725732,Store,JAC,DG 231 FOOD CORP,DANS,572,WEST 207TH ST,,,NEW YORK,NY,10034,8000,-73.920428,40.866463,572 WEST 207TH ST
New York,725719,Store,JAC,WHOLE FOODS MARKET GROUP INC,WHOLE FOODS MARKET,1095,6TH AVE,,,NEW YORK,NY,10036,42000,-73.984379,40.754482,1095 6TH AVE
Kings,725648,Store,JAC,5 BOROUGHS BREWERY INC,FIVE BOROUGHS BREWING C,215,47TH ST,,,BROOKLYN,NY,11220,15000,-74.014651,40.650437,215 47TH ST
New York,725427,Store,JAC,RUSHIKA INC,SOHO DELI & GROCERY,15,STANTON STREET,,,NEW YORK,NY,10002,5000,-73.992168,40.722554,15 STANTON STREET
Kings,725408,Store,JAC,A&A COFFEE LLC,MIXTAPE BUSHWICK,175,VAN DYKE STREET 324A,,,BROOKLYN,NY,11231,6000,-74.016639,40.677003,175 VAN DYKE STREET 324A
Kings,725379,Store,JAC,CEM FOOD CORP,SHOP FAIR,256,LIVONIA AVENUE,,,BROOKLYN,NY,11212,10000,-73.908157,40.662556,256 LIVONIA AVENUE
Kings,725308,Store,JAC,HI MANGO 1055 INC,HI MANGO NATURAL MARKET,1055,FLUSHING AVE,,,BROOKLYN,NY,11237,5000,-73.930029,40.704219,1055 FLUSHING AVE
Kings,725147,Store,JAC,ARENA WINE & LIQUOR DEPOT CORP,ARENA WINE & LIQUOR DEP,633,WASHINGTON AVE,,,BROOKLYN,NY,11238,5000,-73.963942,40.678677,633 WASHINGTON AVE
Queens,725072,Store,JAC,BS COMM LLC,BEYOND SUSHI,43-44,21ST STREET,,,LONG ISLAND CITY,NY,11101,5000,-73.946515,40.749678,43-44 21ST STREET
Kings,725055,Store,JAC,DONGSHENG FOOD INC,DONGSHENG FOOD,6719,BAY PARKWAY,,,BROOKLYN,NY,11204,5000,-73.983074,40.612267,6719 BAY PARKWAY
Kings,724789,Store,JAC,GREEN CORNER NY LLC,GREEN CORNER FISH & FAR,801,FLUSHING AVE,,,BROOKLYN,NY,11206,10000,-73.940591,40.701043,801 FLUSHING AVE
Queens,724654,Store,JAC,ROCHDALE MEAT & PRODUCE LLC,KEY FOOD,166-02,BAISLEY BLVD,,,JAMAICA,NY,11434,20000,-73.777386,40.67955,166-02 BAISLEY BLVD
Queens,724610,Store,JAC,KRISHNA HOLDING INC,MAHARAJA FARMERS MARKET,249-12,HILLSIDE AVE,,,BELLEROSE,NY,11426,5500,-73.717911,40.735277,249-12 HILLSIDE AVE
Queens,724463,Store,JAC,FROOT CIRCLE INC,C-TOWN SUPERMARKET,39-07,65TH PLACE,,,WOODSIDE,NY,11377,5000,-73.898989,40.745732,39-07 65TH PLACE
Kings,724432,Store,JAC,BOGOPA BG FLATLANDS LLC,FOOD BAZAAR,111-10,FLATLANDS AVE,,,BROOKLYN,NY,11207,35000,-73.890353,40.650763,111-10 FLATLANDS AVE
New York,724372,Store,JAC,100 BROAD STREET LLC,ESSEN,100,BROAD ST,,,NEW YORK,NY,10004,15000,-74.011594,40.703475,100 BROAD ST
Queens,724151,Store,JAC,SANTIAGO MEAT & PRODUCE INC,CHERRY VALLEY,94-53,CORONA AVENUE,,,ELMHURST,NY,11373,10000,-73.868276,40.742173,94-53 CORONA AVENUE
New York,724079,Store,JAC,TARGET CORP,TARGET STORE T-3229,255,GREENWICH ST,,,NEW YORK,NY,10007,20000,-74.011456,40.714556,255 GREENWICH ST
New York,723973,Store,JAC,BROOKLYN FARE GREENWICH LLC,BROOKLYN FARE GREENWICH,666,GREENWICH ST,,,NEW YORK,NY,10014,10000,-74.007622,40.732448,666 GREENWICH ST
Kings,723852,Store,JAC,GOLDEN CITY SUPERMARKET 1 INC,GOLDEN CITY SUPERMARKET,2217,86TH STREET,,,BROOKLYN,NY,11214,5000,-73.993262,40.601597,2217 86TH STREET
Kings,723617,Store,JAC,VILLA TAPIA CITI FRESH SUPERMARKE,VILLA TAPIA CITI FRESH,40,NOSTRAND AVENUE,,,BROOKLYN,NY,11205,5000,-73.95325,40.698723,40 NOSTRAND AVENUE
Queens,723529,Store,JAC,PARADISE FRESH FOODS LLC,KEY FOODS,123-12,101 AVE,,,SOUTH RICHMOND HIL,NY,11419,10000,,,123-12 101 AVE
New York,723496,Store,JAC,EMERALD AND WHITE MARKETS INC,MORTON WILLIAMS SUPERMA,1331,1ST AVE,,,NEW YORK,NY,10021,12000,-73.956266,40.767438,1331 1ST AVE
New York,723414,Store,JAC,WING FUNG HONG LTD,WING FUNG TRADING,53-55,DIVISION STREET,,,NEW YORK,NY,10002,10000,-73.994999,40.714215,53-55 DIVISION STREET
Queens,723409,Store,JAC,FAD OZONE FOOD CORP,GOLDEN FARMS,101-16,77 STREET,,,OZONE PARK,NY,11416,16000,-73.860559,40.679693,101-16 77 STREET
Kings,723215,Store,JAC,ZOON 410 CORP,MR LEMON,410,KNICKERBOCKER AVE,,,BROOKLYN,NY,11237,5000,-73.919998,40.699745,410 KNICKERBOCKER AVE
Kings,723212,Store,JAC,FOOD STORY NATURAL MARKET INC,FOOD STORY NATURAL MARK,40,BOGART STREET,,,BROOKLYN,NY,11206,7000,-73.933206,40.704971,40 BOGART STREET
Queens,722208,Store,JAC,TARGET CORPORATION,TARGET STORE T-3230,70-00,AUSTIN ST,,,FOREST HILLS,NY,11375,7000,-73.847294,40.721073,70-00 AUSTIN ST
Queens,722168,Store,JAC,DOUGHNUT PLANT INC,DOUGHNUT PLANT,31-00,47TH AVE SUITE 1100 BOX 18,,,LONG ISLAND CITY,NY,11101,5000,-73.935337,40.743026,31-00 47TH AVE SUITE 1100 BOX 18
Richmond,722142,Store,JAC,LOPEZ-MENDOZA PATRICIA GUADALUPE,PGL DELI & GROCERY,340,HEBERTON AVENUE,,,STATEN ISLAND,NY,10302,5000,-74.134128,40.632698,340 HEBERTON AVENUE
Bronx,721919,Store,JAC,E&D 204 FOOD CORP,C-TOWN SUPERMARKET,264,E 204TH STREET,,,BRONX,NY,10458,7000,-73.883854,40.874048,264 E 204TH STREET
Bronx,721868,Store,JAC,PONGO FOOD CORP,C-TOWN,3690,THIRD AVENUE,,,BRONX,NY,10456,6000,-73.903565,40.834956,3690 THIRD AVENUE
Bronx,721590,Store,JAC,TKRC PRODUCTIONS LLC,TKRC PRODUCTIONS,620-630,GERARD AVENUE,,,BRONX,NY,10451,10000,-73.928379,40.821201,620-630 GERARD AVENUE
Bronx,721469,Store,JAC,PRUZZOS SUPERMARKET CORP,PRUZZOS SUPERMARKET,2937,WESTCHESTER AVE,,,BRONX,NY,10461,5000,-73.832759,40.846626,2937 WESTCHESTER AVE
New York,721216,Store,JAC,SEVEN SEAS 49TH ST LLC,FOOD EMPORIUM THE,810,8TH AVE,,,NEW YORK,NY,10019,22000,-73.986284,40.762053,810 8TH AVE
Kings,720862,Store,JAC,PARAMOUNT SUPERMARKET INC,FOOD UNIVERSE,2424,FLATBUSH AVE,,,BROOKLYN,NY,11234,15000,-73.923863,40.610857,2424 FLATBUSH AVE
Kings,720726,Store,JAC,MENCHYS ON J CORP,MENCHYS ON J,1412,AVENUE J,,,BROOKLYN,NY,11230,7000,-73.961852,40.625131,1412 AVENUE J
Bronx,720340,Store,JAC,65 BURNSIDE MEAT MARKET CORP,SAGAL FOOD,65,E BURNSIDE AVE,,,BRONX,NY,10453,5000,-73.906207,40.853383,65 E BURNSIDE AVE
New York,720310,Store,JAC,SEVEN SEAS UNION SQ LLC,FOOD EMPORIUM # 1956,10,UNION SQ EAST,,,NEW YORK,NY,10003,22000,-73.989911,40.734587,10 UNION SQ EAST
Queens,720128,Store,JAC,KEY FOOD CS 3 LLC,FOOD UNIVERSE,75-55,31ST AVE,,,JACKSON HEIGHTS,NY,11370,25000,-73.891879,40.758612,75-55 31ST AVE
Kings,720082,Store,JAC,CEE FOOD CORP,BRAVO,844,DEKALB AVE,,,BROOKLYN,NY,11221,6000,-73.942151,40.692431,844 DEKALB AVE
Queens,720042,Store,JAC,JAR 259 FOOD CORP,KEY FOOD 1940,259-01,UNION TPIKE,,,GLEN OAKS,NY,11004,32000,-73.713057,40.746508,259-01 UNION TPIKE
Queens,719900,Store,JAC,HB 84 FOOD CORP,FOOD EMPORIUM,82-35,153RD AVENUE,,,HOWARD BEACH,NY,11414,29000,-73.851454,40.666153,82-35 153RD AVENUE
Queens,719888,Store,JAC,QUEENS SHOPRITE ASSOCIATES LLC,SHOPRITE OF 20TH AVENUE,133-11,20TH AVE,,,COLLEGE POINT,NY,11356,20000,-73.836428,40.781668,133-11 20TH AVE
Kings,719861,Store,JAC,MY HARVEST LLC,MY HARVEST,5,HEYWARD ST,,,BROOKLYN,NY,11249,8000,-73.959598,40.699409,5 HEYWARD ST
Bronx,719857,Store,JAC,RO SUPERMARKET CORP,BRAVO SUPERMARKET,640,COURTLANDT AVE,,,BRONX,NY,10451,8000,-73.918479,40.818899,640 COURTLANDT AVE
New York,719788,Store,JAC,NAMDOR INC,GRISTEDES #777,1450,THIRD AVE,,,NEW YORK,NY,10028,12000,-73.95561,40.776571,1450 THIRD AVE
New York,719397,Store,JAC,300 W 145TH FOOD LLC,FOODTOWN #609,300,W 145TH ST,,,NEW YORK,NY,10039,40000,-73.942474,40.823069,300 W 145TH ST
Queens,719368,Store,JAC,STOP & SHOP SUPERMARKET CO LLC TH,STOP & SHOP #2579,112-15,BEACH CHANNEL DR,,,ROCKAWAY PARK,NY,11694,35000,-73.83549,40.582564,112-15 BEACH CHANNEL DR
Queens,719360,Store,JAC,STOP & SHOP SUPERMARKET CO LLC TH,STOP & SHOP #2580,213-15,26TH AVE,,,BAYSIDE,NY,11360,42000,-73.776269,40.778601,213-15 26TH AVE
Queens,719356,Store,JAC,STOP & SHOP SUPERMARKET CO LLC TH,STOP & SHOP #2587,3106,FARRINGTON ST,,,FLUSHING,NY,11354,25000,-73.833723,40.769245,3106 FARRINGTON ST
Kings,719352,Store,JAC,STOP & SHOP SUPERMARKET CO LLC TH,STOP & SHOP #2591,2965,CROPSEY AVE,,,BROOKLYN,NY,11214,20000,-73.986097,40.582543,2965 CROPSEY AVE
Kings,719284,Store,JAC,UTICA MEAT & PRODUCE INC,C TOWN,330,UTICA AVE,,,BROOKLYN,NY,11213,8000,-73.93133,40.666674,330 UTICA AVE
Queens,719265,Store,JAC,STOP & SHOP SUPERMARKET COMPANY L,STOP & SHOP #2581,156-01,CROSSBAY BLVD,,,HOWARD BEACH,NY,11414,10000,-73.840897,40.663671,156-01 CROSSBAY BLVD
Bronx,719261,Store,JAC,STOP & SHOP SUPERMARKET LLC THE,STOP & SHOP #2593,961,E 174TH ST,,,BRONX,NY,10460,8000,-73.885436,40.836591,961 E 174TH ST
Kings,719260,Store,JAC,STOP & SHOP SUPERMARKET COMPANY L,STOP & SHOP #2586,625,ATLANTIC AVE,,,BROOKLYN,NY,11217,9250,-73.974094,40.683159,625 ATLANTIC AVE
Kings,719203,Store,JAC,492 SUPERMARKET CORP,KEY FOOD,492,MYRTLE AVE,,,BROOKLYN,NY,11205,12700,-73.965319,40.693408,492 MYRTLE AVE
Kings,719070,Store,JAC,FRESH N SAVE FOOD CORP,WINDSOR FARMS MARKET,589,PROSPECT AVE,,,BROOKLYN,NY,11215,6000,-73.977794,40.656447,589 PROSPECT AVE
Queens,718868,Store,JAC,RUBEN & RUBEN FOOD CORP,KEY FOOD SUPERMARKET,87-25,LEFFERTS BLVD,,,RICHMOND HILL,NY,11418,20000,-73.830373,40.698883,87-25 LEFFERTS BLVD
Queens,718793,Store,JAC,MEDITERRANEAN FOODS III INC,MEDITERRANEAN FOODS III,22-78,35TH STREET,,,ASTORIA,NY,11105,6000,-73.910847,40.773293,22-78 35TH STREET
Kings,718714,Store,JAC,TAJUKEN DELI CORP,TAJUKEN DELI,114,MARCUS GARVEY BLVD,,,BROOKLYN,NY,11206,5000,-73.940397,40.694776,114 MARCUS GARVEY BLVD
Kings,718411,Store,JAC,1525 K FOOD LLC,PATHMARK / FOODTOWN,1525,ALBANY AVE,,,BROOKLYN,NY,11210,5900,-73.937355,40.63538,1525 ALBANY AVE
Kings,717835,Store,JAC,ADVANCED DOMINO INC,DOMINO,1824,KINGS HWY,,,BROOKLYN,NY,11229,5500,-73.954922,40.610195,1824 KINGS HWY
Bronx,717779,Store,JAC,FAD 2300 FOOD CORP,GOLDEN MANGO,2300,RANDALL AVE,,,BRONX,NY,10473,40000,-73.843735,40.8196,2300 RANDALL AVE
Bronx,717755,Store,JAC,NEW MODERN INC,MODERN MARKET,2385,ARTHUR AVE,,,BRONX,NY,10458,6000,-73.887915,40.855152,2385 ARTHUR AVE
Kings,717706,Store,JAC,SEA LAND SEAFOOD & MEAT MARKET IN,SEA LAND SEAFOOD & MEAT,2502,86TH ST,,,BROOKLYN,NY,11214,6000,-73.986831,40.597691,2502 86TH ST
New York,717698,Store,JAC,ST PHILOPATER MARCURIUS INC,RANCH DELI,856,AMSTERDAM AVE,,,NEW YORK,NY,10025,9000,-73.967662,40.797774,856 AMSTERDAM AVE
Kings,717596,Store,JAC,GREEN IVY 1 INC,GREEN IVY 1,246,4TH AVE,,,BROOKLYN,NY,11215,5000,-73.983648,40.676668,246 4TH AVE
New York,717573,Store,JAC,SCARLET & WHITE MARKETS INC,MORTON WILLIAMS SUPERMA,1031,1ST AVE,,,NEW YORK,NY,10022,9000,-73.963201,40.757919,1031 1ST AVE
Bronx,717541,Store,JAC,O AND V DELI GROCERY CORP,O AND V DELI GROCERY,1397,FRANKLIN AVE 1ST FLOOR,,,BRONX,NY,10456,12000,-73.90027,40.834063,1397 FRANKLIN AVE 1ST FLOOR
Kings,717299,Store,JAC,FORUM SUPERMARKET INC,FORUM SUPERMARKET,6501,7TH AVE,,,BROOKLYN,NY,11220,8000,-74.014983,40.633559,6501 7TH AVE
Queens,717277,Store,JAC,FOOD EXPRESS INC,FOOD EXPRESS SUPERMARKE,39-39,63RD ST,,,WOODSIDE,NY,11377,8000,-73.90119,40.745611,39-39 63RD ST
Queens,717251,Store,JAC,THE BRAND FOOD SELLERS INC,FOOD UNIVERSE,96-09,LIBERTY AVE,,,OZONE PARK,NY,11417,5000,-73.842721,40.680642,96-09 LIBERTY AVE
Queens,716970,Store,JAC,96 MEAT & PRODUCE CORP,MI TIERRA SUPERMARKET,96-17,NORTHERN BLVD,,,CORONA,NY,11368,8000,-73.871562,40.75706,96-17 NORTHERN BLVD
Bronx,716756,Store,JAC,ESPERANZA SUPERMARKET LLC,PIONEER,107,FEATHERBED LANE,,,BRONX,NY,10452,8000,-73.91862,40.846171,107 FEATHERBED LANE
Kings,716705,Store,JAC,1165 FRESH PRODUCE CORP,PREMIER FOOD FRESH MARK,1165,BROADWAY,,,BROOKLYN,NY,11221,5500,-73.928018,40.692888,1165 BROADWAY
New York,716624,Store,JAC,BURGANDY & WHITE MKTS INC,MORTON WILLIAMS,1211,MADISON AVE,,,NEW YORK,NY,10128,6000,-73.95821,40.781681,1211 MADISON AVE
Kings,716273,Store,JAC,REMSEN MEAT & PRODUCE CORP,FOOD UNIVERSE,405,REMSEN AVE,,,BROOKLYN,NY,11212,5500,-73.923369,40.655848,405 REMSEN AVE
Queens,716264,Store,JAC,FLUSHING SUPERMARKET INC,WASSERMAN SUPERMARKET,72-51,MAIN ST,,,FLUSHING,NY,11367,6500,,,72-51 MAIN ST
Bronx,716190,Store,JAC,2400 C&F FOOD CORP,PIONEER,2400,RYER AVE,,,BRONX,NY,10458,9000,-73.897837,40.859928,2400 RYER AVE
Queens,715855,Store,JAC,ITTADI SUPERMARKET LLC,PREMIUM SUPERMARKET,168-07,HILLSIDE AVE,,,JAMAICA,NY,11432,5500,-73.794474,40.710164,168-07 HILLSIDE AVE
New York,715795,Store,JAC,WHOLE FOODS MARKET GROUP INC,WHOLE FOODS MARKET,1551,3RD AVE,,,NEW YORK,NY,10128,8000,-73.953132,40.77996,1551 3RD AVE
Kings,715720,Store,JAC,SKYLIGHT HOLDINGS 2 INC,MARKETPLACE BY KEYFOOD,617,5TH AVE,,,BROOKLYN,NY,11215,7000,-73.990942,40.663732,617 5TH AVE
Queens,715666,Store,JAC,GRANDE MUNDO LLC,GRANDE MUNDO SUPERMARKE,42-16,JUNCTION BLVD,,,CORONA,NY,11368,5000,-73.868136,40.745815,42-16 JUNCTION BLVD
Bronx,715619,Store,JAC,2891 FOOD CORP,C-TOWN SUPERMARKET,2891,SEDGWICK AVE,,,BRONX,NY,10468,5200,-73.901328,40.874841,2891 SEDGWICK AVE
New York,714993,Store,JAC,FOODMOOD LLC,GRACEFULLY,400,E 23RD ST,,,NEW YORK,NY,10010,6500,-73.979182,40.737168,400 E 23RD ST
Kings,714914,Store,JAC,7414 3RD AVE MEAT LLC,KEY FOOD,7414,3RD AVE,,,BROOKLYN,NY,11209,20000,-74.027709,40.631655,7414 3RD AVE
Richmond,714836,Store,JAC,1490 MEAT CORP,OLIVE TREE MARKETPLACE,1490,CLOVE RD,,,STATEN ISLAND,NY,10301,5000,-74.099243,40.612277,1490 CLOVE RD
Queens,714700,Store,JAC,R&R FOOD STORES INC,R&R FOOD STORES,552,BEACH 25TH ST,,,FAR ROCKAWAY,NY,11691,5000,-73.76141,40.599695,552 BEACH 25TH ST
Kings,714498,Store,JAC,GOOD LUCK PHARMACY INC,DUMONT PHARMACY,364,JUNIUS ST,,,BROOKLYN,NY,11212,10000,-73.901962,40.665707,364 JUNIUS ST
Queens,714386,Store,JAC,DC FLUSHING MARKET CORP,DC FLUSHING MARKET,133-54,41ST AVE,,,FLUSHING,NY,11355,5000,-73.830135,40.757928,133-54 41ST AVE
Richmond,714299,Store,JAC,BEST FOOD CORP OF NY,KEY FOOD FRESH,331-332,PORT RICHMOND AVE,,,STATEN ISLAND,NY,10302,9500,-74.13636,40.633592,331-332 PORT RICHMOND AVE
Queens,714210,Store,JAC,HF DOLLAR & UP FRUIT & VEGETABLE,HF DOLLAR & UP FRUIT &,61-27,ROOSEVELT AVE,,,WOODSIDE,NY,11377,5000,-73.902625,40.745667,61-27 ROOSEVELT AVE
Bronx,714185,Store,JAC,AV FOOD CORP,C TOWN SUPERMARKET,630,E 169TH ST,,,BRONX,NY,10456,5000,-73.901179,40.831458,630 E 169TH ST
New York,714061,Store,JAC,A&A MEAT & PRODUCE CORP,COMPARE FOOD,3815,NINTH AVE,,,NEW YORK,NY,10034,10000,-73.918251,40.862084,3815 NINTH AVE
Queens,714056,Store,JAC,ALMONTE BAY FOOD CORP,KEY FOOD,163-30,CROSSBAY BLVD,,,HOWARD BEACH,NY,11414,10000,-73.838163,40.651891,163-30 CROSSBAY BLVD
New York,713931,Store,JAC,HERMANA MIRABEL INC,CHERRY VALLEY,1968,2ND AVE,,,NEW YORK,NY,10029,5000,-73.944641,40.78761,1968 2ND AVE
New York,713584,Store,JAC,LOS ALAMOS MEAT & PRODUCE INC,CITY FRESH MARKET,235,E 106TH ST,,,NEW YORK,NY,10029,25000,-73.943528,40.791082,235 E 106TH ST
Bronx,712962,Store,JAC,TARGET CORP,TARGET STORE T-2811,815,E HUTCHINSON RIVER PKWY,,,BRONX,NY,10465,37000,-73.836397,40.822612,815 E HUTCHINSON RIVER PKWY
New York,712891,Store,JAC,DORIA ENTERPRISES NYC LLC,GRACES MARKETPLACE,1299,SECOND AVE,,,NEW YORK,NY,10065,13000,-73.96,40.766549,1299 SECOND AVE
Queens,712692,Store,JAC,50-01 MEAT CORP,URBAN MARKET,50-01,2ND ST,,,LONG ISLAND CITY,NY,11101,10000,-73.95848,40.743355,50-01 2ND ST
Kings,712682,Store,JAC,TEGS MANAGEMENT LLC,NETCOST MARKET,1029,BRIGHTON BEACH AVE,,,BROOKLYN,NY,11235,13000,-73.95855,40.578253,1029 BRIGHTON BEACH AVE
Bronx,712626,Store,JAC,EL FLACO GROCERY STORE INC,EL FLACO GROCERY STORE,2019,SOUTHERN BLVD,,,BRONX,NY,10460,15000,-73.885338,40.844373,2019 SOUTHERN BLVD
Kings,712487,Store,JAC,3 J S FOOD CORP,SHOP FAIR,2222,PITKIN AVE,,,BROOKLYN,NY,11207,5000,-73.890465,40.672683,2222 PITKIN AVE
Queens,712423,Store,JAC,ET FRESH FOOD USA INC,ASSOCIATED SUPERMARKET,63-01,ROOSEVELT AVE,,,WOODSIDE,NY,11377,6000,-73.900517,40.74589,63-01 ROOSEVELT AVE
Kings,712409,Store,JAC,HI MANGO NATURAL MARKET V INC,HI MANGO NATURAL MARKET,341,KNICKERBOCKER AVE,,,BROOKLYN,NY,11237,5000,-73.922157,40.700968,341 KNICKERBOCKER AVE
Queens,712360,Store,JAC,YOGI ORGANIC MARKET INC,DOWNTOWN NATURAL MARKET,84-01,37TH AVE,,,JACKSON HEIGHTS,NY,11372,5000,-73.882168,40.749969,84-01 37TH AVE
Bronx,712289,Store,JAC,MD 210 FOOD CORP,BRAVO SUPERMARKET,210,E 170TH ST,,,BRONX,NY,10456,15000,-73.913464,40.838497,210 E 170TH ST
Kings,712258,Store,JAC,BRA CORP,IDEAL FRESHMARKET,1301,CHURCH AVE,,,BROOKLYN,NY,11226,7000,-73.967323,40.647772,1301 CHURCH AVE
New York,711853,Store,JAC,HARLEM 421 FOOD CORP,KEY FOOD,421,W 125TH ST,,,NEW YORK,NY,10027,6400,-73.955066,40.811994,421 W 125TH ST
Queens,711827,Store,JAC,NGP MARKETS CORP,NEW AGE MARKETS,160-06,NORTHERN BLVD,,,FLUSHING,NY,11358,16000,-73.80501,40.762673,160-06 NORTHERN BLVD
New York,711658,Store,JAC,78-84 WESTSIDE MARKET LLC,WESTSIDE MARKET,78-84,THIRD AVE,,,NEW YORK,NY,10003,18000,-73.988335,40.731713,78-84 THIRD AVE
Queens,711572,Store,JAC,AMANA FOOD LLC,GLOBAL SUPERMARKET,75-07,37TH AVE,,,JACKSON HEIGHTS,NY,11372,5000,-73.890734,40.749069,75-07 37TH AVE
Queens,711471,Store,JAC,AO XIN ZHOU SUPERMARKETS INC,MILK FARM SUPERMARKETS,88-11,LIBERTY AVE,,,OZONE PARK,NY,11417,5000,-73.85036,40.679916,88-11 LIBERTY AVE
Kings,711421,Store,JAC,NEW YORK PRETZEL LLC,NEW YORK PRETZEL,200,MOORE ST,,,BROOKLYN,NY,11206,20000,-73.936663,40.704316,200 MOORE ST
Richmond,710460,Store,JAC,RIZKA FOOD CORPORATION,C TOWN SUPERMARKET,2071,CLOVE RD SUITE F & U,,,STATEN ISLAND,NY,10304,7000,-74.084019,40.604463,2071 CLOVE RD SUITE F & U
Kings,710298,Store,JAC,BB 3008 FOOD CORP,BRAVO SUPERMARKET,3008,FULTON ST,,,BROOKLYN,NY,11208,8400,-73.883515,40.680309,3008 FULTON ST
Kings,710078,Store,JAC,11 UM FOOD CORP,CITY ACRES MARKET,11,BROADWAY,,,BROOKLYN,NY,11249,15000,-73.967981,40.710758,11 BROADWAY
New York,709754,Store,JAC,MASSOLA MANAGEMENT 368 CORP,7 ELEVEN STORE #35621A,368,8TH AVE,,,NEW YORK,NY,10001,18000,-73.995946,40.748759,368 8TH AVE
Queens,709656,Store,JAC,GREEN VALLEY CORP,FINE FARE SUPERMARKET,89-45,163RD ST,,,JAMAICA,NY,11432,9000,-73.797544,40.705887,89-45 163RD ST
Kings,709587,Store,JAC,WHOLE FOODS MARKET GROUP INC,WHOLE FOODS MARKET,214,3RD ST,,,BROOKLYN,NY,11215,20000,-73.98838,40.675257,214 3RD ST
New York,709555,Store,JAC,HARLEM POLO GROUNDS MEAT CORP,SHOP FAIR,159-04,HARLEM RIVER DR,,,NEW YORK,NY,10039,10000,-73.935441,40.831826,159-04 HARLEM RIVER DR
Queens,709499,Store,JAC,SEA TOWN CORONA NY LLC,SEA TOWN CORONA,39-24,104TH ST,,,CORONA,NY,11368,7500,-73.861903,40.750257,39-24 104TH ST
New York,709413,Store,JAC,1769 CENTRAL FOODS LLC,KEY FOOD,1769,2ND AVE,,,NEW YORK,NY,10128,8000,-73.94878,40.781941,1769 2ND AVE
Bronx,709250,Store,JAC,FRANCO PARTNERS INC,FOOD CHOICE MARKET,2244,WHITE PLAINS RD,,,BRONX,NY,10467,18000,-73.867603,40.858674,2244 WHITE PLAINS RD
Richmond,709193,Store,JAC,MIDWAY MINIMARKET CORP,MIDWAY MINIMARKET,207,BROAD ST,,,STATEN ISLAND,NY,10304,5000,-74.081608,40.623968,207 BROAD ST
Kings,709123,Store,JAC,DOLEH 919 FOOD CORP,KEY FOOD,3485,NEPTUNE AVE,,,BROOKLYN,NY,11224,10000,-74.001928,40.577041,3485 NEPTUNE AVE
Queens,708982,Store,JAC,OH NUTS WAREHOUSING INC,OH NUTS,120-65,168TH ST,,,JAMAICA,NY,11434,20000,-73.776213,40.681427,120-65 168TH ST
Richmond,708953,Store,JAC,TARGET STORES,TARGET STORE T-2753,2873,RICHMOND AVE,,,STATEN ISLAND,NY,10314,40000,-74.169724,40.575068,2873 RICHMOND AVE
Bronx,708895,Store,JAC,ANTILLANA & METRO SUPERMARKET COR,ANTILLANA & METRO SUPER,1339,JEROME AVE,,,BRONX,NY,10452,8500,-73.918629,40.838896,1339 JEROME AVE
Kings,708876,Store,JAC,ILKE CORP,CARNIVAL FRESH MARKET,128-132,CHURCH AVE,,,BROOKLYN,NY,11218,5500,-73.978833,40.643056,128-132 CHURCH AVE
Kings,708821,Store,JAC,C W SEAFOOD & MEAT MARKET INC,C W SEAFOOD & MEAT MARK,5707,8TH AVE,,,BROOKLYN,NY,11220,6500,-74.007992,40.636987,5707 8TH AVE
Kings,708818,Store,JAC,LA JOYA FOOD MARKET CORP,ASSOCIATED,103,HEGEMAN AVE,,,BROOKLYN,NY,11212,5000,-73.90805,40.65616,103 HEGEMAN AVE
New York,708796,Store,JAC,KING MEAT CORP,SHOP FAIR,3871,BROADWAY,,,NEW YORK,NY,10032,15000,-73.942971,40.836855,3871 BROADWAY
Bronx,708686,Store,JAC,J & Z FOOD MART AND SUPERMARKET I,AL-AGSA HALAL MEAT SPMK,2109,STARLING AVE,,,BRONX,NY,10462,8000,-73.854728,40.836092,2109 STARLING AVE
Kings,708666,Store,JAC,CG&C 2 PRIME MEAT MARKET LLC,FRANK & SAL PRIME MEATS,8008,18TH AVE,,,BROOKLYN,NY,11214,6000,-73.999142,40.610266,8008 18TH AVE
Queens,708548,Store,JAC,KAWRAN BAZAR INC,KAWRAN SUPERMARKET,148-19,HILLSIDE AVE,,,JAMAICA,NY,11435,5000,-73.808182,40.70623,148-19 HILLSIDE AVE
Kings,708484,Store,JAC,MLD 91 FOOD CORP,BRAVO SUPERMARKET,91,HUMBOLDT ST,,,BROOKLYN,NY,11206,10000,-73.940976,40.704424,91 HUMBOLDT ST
Kings,708342,Store,JAC,SMILEY NEWS INC,SMILEY NEWS,2271,MCDONALD AVE,,,BROOKLYN,NY,11223,40000,-73.973238,40.596954,2271 MCDONALD AVE
Kings,708316,Store,JAC,MURAD FOOD CORP,PIONEER SUPERMARKET,5612,5TH AVE,,,BROOKLYN,NY,11220,6000,-74.014089,40.641481,5612 5TH AVE
Bronx,708028,Store,JAC,PARADISE MEAT CORP,PARADISE MEAT,2476,WILLIAMS BRIDGE RD,,,BRONX,NY,10469,6500,-73.857756,40.862468,2476 WILLIAMS BRIDGE RD
New York,707917,Store,JAC,JUN 0709 INC,SUNAC NATURAL,600,W 42ND STREET,,,NEW YORK,NY,10036,16000,-73.998686,40.760989,600 W 42ND STREET
Richmond,707763,Store,JAC,155 MEAT CORP,KEY FOOD 1734,155,BAY ST,,,STATEN ISLAND,NY,10301,12000,-74.075894,40.638201,155 BAY ST
Queens,707748,Store,JAC,H MART BAYSIDE LLC,H MART,46-40,FRANCIS LEWIS BLVD,,,FLUSHING,NY,11358,30000,-73.780632,40.753595,46-40 FRANCIS LEWIS BLVD
Richmond,707484,Store,JAC,KINGDOM CASTLE FOOD CORP,KEY FOOD,300,SAND LANE,,,STATEN ISLAND,NY,10305,9000,-74.067997,40.592192,300 SAND LANE
Queens,707153,Store,JAC,K&J ROCHDALE FOOD CORP,IDEAL FOOD BASKET,169-85,137TH AVE,,,JAMAICA,NY,11434,15000,-73.769998,40.672761,169-85 137TH AVE
Kings,706966,Store,JAC,NASEB FOODS INC,MET FRESH SUPERMARKET,9606,3RD AVE,,,BROOKLYN,NY,11209,8000,-74.033952,40.616393,9606 3RD AVE
Bronx,706808,Store,JAC,FERNANDEZ 224 FOOD CORP,FOOD UNIVERSE MARKET PL,3942,WHITE PLAINS RD,,,BRONX,NY,10466,20000,-73.860983,40.886932,3942 WHITE PLAINS RD
New York,706802,Store,JAC,A MATTER OF HEALTH NYC INC,A MATTER OF HEALTH NYC,1347,1ST AVE,,,NEW YORK,NY,10021,8900,-73.955852,40.768013,1347 1ST AVE
Queens,706272,Store,JAC,BFF FOOD CORP,FOOD TOWN 515,47-33,BELL BLVD.,,,BAYSIDE,NY,11361,8000,-73.767266,40.755938,47-33 BELL BLVD.
Queens,706228,Store,JAC,YONG FA SUPERMARKET INC,YONG FA SUPERMARKET,59-11,MAIN ST,,,FLUSHING,NY,11355,15000,-73.825529,40.7433,59-11 MAIN ST
Kings,706209,Store,JAC,AVNER KOSHER FISH MARKET INC,AVNER KOSHER FISH MARKE,521,KINGS HIGHWAY,,,BROOKLYN,NY,11223,15000,-73.970235,40.60442,521 KINGS HIGHWAY
Kings,706198,Store,JAC,J&E MEAT & PRODUCE CORP,SHOP FAIR,385,BROADWAY,,,BROOKLYN,NY,11211,7000,-73.954517,40.707257,385 BROADWAY
Queens,705952,Store,JAC,LIBERTY PRODUCE INC,FOOD UNIVERSE,127-16,111TH AVE,,,SOUTH OZONE PARK,NY,11420,10000,-73.814154,40.68254,127-16 111TH AVE
Queens,705862,Store,JAC,HILLSIDE 175 MEAT CORP,IDEAL FOOD BASKET,175-35,HILLSIDE AVE,,,JAMAICA,NY,11432,15000,-73.786412,40.71207,175-35 HILLSIDE AVE
Bronx,705758,Store,JAC,KDA FOOD CORP,SHOP FAIR,306,E 170TH ST,,,BRONX,NY,10456,8000,-73.910337,40.837401,306 E 170TH ST
Queens,705737,Store,JAC,US SUPERMARKET INC,US SUPERMARKET,82-66,BROADWAY,,,ELMHURST,NY,11373,7000,-73.880799,40.741691,82-66 BROADWAY
Kings,705682,Store,JAC,DKA FOOD CORP,SHOP FAIR,1125,FULTON ST,,,BROOKLYN,NY,11238,11000,-73.95674,40.681361,1125 FULTON ST
Queens,705679,Store,JAC,7-ELEVEN INC,7 ELEVEN STORE #34023K,107-24,CORONA AVE,,,CORONA,NY,11368,20000,-73.855443,40.743463,107-24 CORONA AVE
Kings,705473,Store,JAC,MOISHAS KOSHER DISCNT SPRMKT INC,MOISHAS KOSHER DSCT SMT,315,AVENUE M,,,BROOKLYN,NY,11230,20000,-73.971838,40.616714,315 AVENUE M
Kings,705170,Store,JAC,ZAFER FOOD CORP,C TOWN,29,BELMONT AVE,,,BROOKLYN,NY,11212,10000,-73.909281,40.668593,29 BELMONT AVE
Kings,705109,Store,JAC,57JR FOODS CORP,C TOWN SUPERMARKET,57,MILL ST,,,BROOKLYN,NY,11231,6000,-74.004454,40.675905,57 MILL ST
Kings,704954,Store,JAC,NORTH 3RD CORP,BROOKLYN HARVEST MARKET,25,N 5TH ST,,,BROOKLYN,NY,11249,15000,-73.962493,40.718967,25 N 5TH ST
Kings,704943,Store,JAC,WEST 6 FRUITS&VEGETABLE STORE INC,WEST 6 FRUITS & VEGETAB,294,KINGS HWY,,,BROOKLYN,NY,11223,20000,-73.979556,40.60512,294 KINGS HWY
Bronx,704892,Store,JAC,950 FAIR FOOD CORP,FINE FARE SUPERMARKET,950,WESTCHESTER AVE,,,BRONX,NY,10459,10000,-73.8968,40.822162,950 WESTCHESTER AVE
Bronx,704871,Store,JAC,3100 THIRD AVENUE FOOD LLC,FOOD TOWN,3100,3RD AVE,,,BRONX,NY,10451,8000,-73.912094,40.821614,3100 3RD AVE
Kings,704354,Store,JAC,FONG & ZHOU SUPERMARKET INC,FONG & ZHOU SUPERMARKET,8514,18TH AVENUE,,,BROOKLYN,NY,11214,8000,-74.002417,40.607441,8514 18TH AVENUE
New York,704345,Store,JAC,CRIMSON & WHITE MARKETS INC,MORTON WILLIAMS,140,W 57TH ST.,,,NEW YORK,NY,10019,11500,-73.978773,40.764992,140 W 57TH ST.
Queens,704019,Store,JAC,ALI & OMER LLC,C TOWN,21-30,NEWTOWN AVE,,,ASTORIA,NY,11102,5000,-73.924927,40.771471,21-30 NEWTOWN AVE
Kings,703382,Store,JAC,1305 MYRTLE LLC,FINE FARE,1305,MYRTLE AVE,,,BROOKLYN,NY,11221,7000,-73.926069,40.698001,1305 MYRTLE AVE
Bronx,703145,Store,JAC,24 WEST FOOD CORP,FOOD DINASTY SUPERMKT,24-30,WEST FORDHAM ROAD,,,BRONX,NY,10468,5000,-73.902721,40.862705,24-30 WEST FORDHAM ROAD
Bronx,702833,Store,JAC,AD 2096 GRAND CORP,CONCOURSE FOOD PLAZA,2096,GRAND CONCOURSE,,,BRONX,NY,10457,9000,-73.902333,40.853726,2096 GRAND CONCOURSE
Queens,702566,Store,JAC,YS FOOD CORP,VITELIOS MARKET PLACE,71-76,YELLOWSTONE BOULEVARD,,,FOREST HILLS,NY,11375,15000,-73.855346,40.720721,71-76 YELLOWSTONE BOULEVARD
Kings,702325,Store,JAC,OASIS MEGA MARKET INC,OASIS MEGA MARKET,2828,CONEY ISLAND AVE.,,,BROOKLYN,NY,11235,5000,-73.960419,40.587501,2828 CONEY ISLAND AVE.
Queens,702001,Store,JAC,109 MEAT & PRODUCE CORP,MI TIERRA SUPERMARKET,109-01,37TH AVE,,,CORONA,NY,11368,8000,-73.858347,40.753935,109-01 37TH AVE
Kings,672021,Store,JAC,OCEAN BAY MARKET INC,OCEAN BAY MARKET,2424,CONEY ISLAND AVENUE,,,BROOKLYN,NY,11223,5000,-73.961201,40.597573,2424 CONEY ISLAND AVENUE
Kings,671952,Store,JAC,EAST NEW YORK KOSHER CORP,THE MARKET PLACE,589,E NEW YORK AVE,,,BROOKLYN,NY,11225,12000,-73.943306,40.662036,589 E NEW YORK AVE
Queens,671764,Store,JAC,KING POLO INC,SHOP FAIR,153-30,89TH AVE,,,JAMAICA,NY,11432,10000,-73.802668,40.705471,153-30 89TH AVE
Queens,671720,Store,JAC,SHREE SAI FOOD MART INC,FAST 24 BREAK,104-19,QUEENS BLVD,,,FOREST HILLS,NY,11375,5000,-73.848549,40.72374,104-19 QUEENS BLVD
Kings,671715,Store,JAC,FOOD COLONY LLC,C TOWN OF BAYRIDGE,7510,5TH AVE,,,BROOKLYN,NY,11209,8000,-74.02275,40.629196,7510 5TH AVE
Kings,671642,Store,JAC,GV MEAT & PRODUCE CORP,CARIBBEAN SUPERMARKET,741,UTICA AVE,,,BROOKLYN,NY,11203,9000,-73.930719,40.65489,741 UTICA AVE
Kings,671641,Store,JAC,13TH AVENUE SUPERMARKET LLC,GOURMET GLATT MARKET,1274,39TH ST,,,BROOKLYN,NY,11218,35000,-73.986828,40.640955,1274 39TH ST
Kings,671638,Store,JAC,GORIS GROCERS FLATBUSH AVE CORP,NYC FRESH MARKET,150,MYRTLE AVE,,,BROOKLYN,NY,11201,10000,-73.982696,40.693572,150 MYRTLE AVE
Kings,671571,Store,JAC,DESI BAZZAR INC,DESI BAZZAR,557,MCDONALD AVE,,,BROOKLYN,NY,11218,5000,-73.978979,40.6406,557 MCDONALD AVE
Kings,671411,Store,JAC,NEW YORK MART 8 AVE INC,I FRESH MARKET,6013,6023 8TH AVE,,,BROOKLYN,NY,11220,10000,-74.00997,40.635102,6013 6023 8TH AVE
Kings,671216,Store,JAC,1720 FOOD CORP,FOOD UNIVERSE,1720,ATLANTIC AVE,,,BROOKLYN,NY,11213,7000,-73.933573,40.677498,1720 ATLANTIC AVE
Queens,671153,Store,JAC,SKY FOODS MART INC,SKY FOODS MART-ELMHURST,7955,ALBION AVE,,,ELMHURST,NY,11373,7000,-73.883446,40.739552,7955 ALBION AVE
Kings,671116,Store,JAC,J VASQUEZ MEAT CORP,METROPOLITAN CITYMARKET,1142,BEDFORD AVENUE,,,BROOKLYN,NY,11216,7000,-73.954292,40.685277,1142 BEDFORD AVENUE
Queens,671085,Store,JAC,SKY FOODS MARKET INC,SKY FOODS MARKET,40-24,COLLEGE POINT BLVD,,,FLUSHING,NY,11354,45000,-73.83416,40.757597,40-24 COLLEGE POINT BLVD
Queens,670795,Store,JAC,AF FOOD CORP,KEY FOOD,30-13,36TH AVE,,,LONG ISLAND CITY,NY,11106,10000,-73.930253,40.756814,30-13 36TH AVE
Queens,670773,Store,JAC,CALHOUN FOODS LLC,KEYFOOD 1598,135-46,LEFFERTS BLVD,,,SOUTH OZONE PARK,NY,11420,10000,-73.821282,40.66926,135-46 LEFFERTS BLVD
Kings,670758,Store,JAC,COVERT SUPERMARKET LLC,SUPER PIONEER SUPERMARK,1657,BROADWAY,,,BROOKLYN,NY,11207,10000,-73.913229,40.684474,1657 BROADWAY
Queens,670736,Store,JAC,J MART GROUP INC,J MART,40-19,MAIN ST,,,FLUSHING,NY,11354,20000,,,40-19 MAIN ST
Kings,670577,Store,JAC,FAT MEAT & PRODUCE CORP,BRAVO SUPERMARKET,4808,4TH AVE,,,BROOKLYN,NY,11220,12000,-74.011785,40.647324,4808 4TH AVE
Kings,670548,Store,JAC,AS WAREHOUSE CO INC,POLAM INTL MT MKT II,276,MCGUINNESS BLVD,,,BROOKLYN,NY,11222,9000,-73.951782,40.731652,276 MCGUINNESS BLVD
Kings,670475,Store,JAC,PRAMUKH HEALTH MARKET INC,DOWNTOWN NATURAL MARKET,1701,CHURCH AVE,,,BROOKLYN,NY,11226,8000,-73.963715,40.649193,1701 CHURCH AVE
Queens,670291,Store,JAC,DUANE READE ET AL PTRS,DUANE READE #14438,136-02,ROOSEVELT AVE,,,FLUSHING,NY,11354,18000,-73.829889,40.759636,136-02 ROOSEVELT AVE
Kings,670217,Store,JAC,492 MARKET PLACE INC,GALA FRESH FARMS,492,ST MARKS AVE,,,BROOKLYN,NY,11238,17000,-73.958286,40.676402,492 ST MARKS AVE
Kings,670108,Store,JAC,MAYAS FOOD CORP,FINE FAIR,783,SARATOGA AVE,,,BROOKLYN,NY,11212,10000,-73.915434,40.661408,783 SARATOGA AVE
Richmond,645442,Store,JAC,BUD INC,PASTOSA RAVIOLI,3817,RICHMOND AVE,,,STATEN ISLAND,NY,10312,5000,-74.165687,40.545257,3817 RICHMOND AVE
Richmond,641589,Store,JAC,STRIP SNACKS INC,STRIP SNACKS,15,MARBLE LOOP,,,STATEN ISLAND,NY,10309,6700,-74.144116,40.563948,15 MARBLE LOOP
Richmond,641573,Store,JAC,STOP&SHOP SUPERMARKET CO LLC THE,SUPER STOP&SHOP #2513,4343,AMBOY RD,,,STATEN ISLAND,NY,10312,37000,-74.160697,40.545233,4343 AMBOY RD
Richmond,641567,Store,JAC,ANTONICO FOODS CORP,LA BELLA MARKETPLACE,99,ELLIS ST,,,STATEN ISLAND,NY,10307,25000,-74.243249,40.516215,99 ELLIS ST
Richmond,641321,Store,JAC,FOOD CONNECTION LTD,MET FOOD,1795,VICTORY BLVD,,,STATEN ISLAND,NY,10314,10000,-74.123628,40.613013,1795 VICTORY BLVD
Richmond,640941,Store,JAC,STOP&SHOP SUPERMARKET CO LLC THE,STOP&SHOP 581,2754,HYLAN BLVD,,,STATEN ISLAND,NY,10306,48000,-74.115587,40.564589,2754 HYLAN BLVD
Richmond,640873,Store,JAC,STATEN ISLAND MET FOOD LTD,MET FOODS,1177,HYLAN BLVD,,,STATEN ISLAND,NY,10305,10500,-74.082128,40.598516,1177 HYLAN BLVD
Richmond,640130,Store,JAC,V&J ITALIAN SPECIALTIES INC,V&J HILLSIDE MARKET,1789,RICHMOND RD,,,STATEN ISLAND,NY,10306,5000,-74.104425,40.586621,1789 RICHMOND RD
Queens,639949,Store,JAC,NIS SEAFOOD INC,NIS SEAFOOD,71-64,AUSTIN ST,,,FOREST HILLS,NY,11375,5000,-73.842561,40.719324,71-64 AUSTIN ST
Queens,639733,Store,JAC,LARA FOOD CORP,TRADE FAIR 2,79-14,21ST AVE,,,EAST ELMHURST,NY,11370,8000,-73.890383,40.770775,79-14 21ST AVE
Queens,639654,Store,JAC,QUEENS HEALTH EMPORIUM INC,QUEENS HEALTH EMPORIUM,159-01,HORACE HARDING EXPWAY,,,FRESH MEADOWS,NY,11365,10000,-73.809091,40.738818,159-01 HORACE HARDING EXPWAY
Queens,639589,Store,JAC,CHLOE 89 FOOD CORP,IDEAL FOOD BASKET,89-30,SUTPHIN BLVD,,,JAMAICA,NY,11435,9500,-73.808667,40.703537,89-30 SUTPHIN BLVD
Queens,639534,Store,JAC,MI TIERRA MEAT&PRODUCE CORP,MI TIERRA SUPERMARKET,85-15,ROOSEVELT AVE,,,JACKSON HEIGHTS,NY,11372,8000,-73.880479,40.747997,85-15 ROOSEVELT AVE
Queens,639457,Store,JAC,LEENA OF NY INC,NEW MART,221-12,HORACE HARDING EXPWY,,,BAYSIDE,NY,11364,8000,-73.756411,40.749153,221-12 HORACE HARDING EXPWY
Queens,639419,Store,JAC,NORTHERN MEAT & PRODUCE CORP,MI TIERRA SUPERMARKET,81-02,NORTHERN BLVD,,,JACKSON HEIGHTS,NY,11372,8000,-73.886015,40.755439,81-02 NORTHERN BLVD
Queens,639342,Store,JAC,KISSENA GLATT FARMS INC,ARONS KISSENA FARMS,72-15,KISSENA BLVD,,,FLUSHING,NY,11367,25000,-73.814781,40.728253,72-15 KISSENA BLVD
Queens,639226,Store,JAC,JOLEMA FOOD CORP,SHOP FAIR,920,SENECA AVE,,,RIDGEWOOD,NY,11385,10000,-73.903423,40.700279,920 SENECA AVE
Queens,639145,Store,JAC,NEW GOLDEN SPARKLING SUPERMKT INC,NEW GOLDEN SPRKLNG MRKT,86-18,BROADWAY,,,ELMHURST,NY,11373,5000,-73.877232,40.738205,86-18 BROADWAY
Queens,639009,Store,JAC,SIMPLY FOOD LIC LLC,FOOD CELLAR&CO,Apr-85,47TH RD,,,LONG ISLAND CITY,NY,11101,20000,-73.955942,40.745301,31138 47TH RD
Queens,638881,Store,JAC,206-16 HOLLIS AVE FOOD CORP,COMPARE FOODS,206-16,HOLLIS AVE,,,QUEENS VILLAGE,NY,11429,7500,-73.750606,40.707441,206-16 HOLLIS AVE
Queens,638871,Store,JAC,DASAE CORP,SS NATURAL,72-56,AUSTIN ST,,,FOREST HILLS,NY,11375,10000,-73.840817,40.71851,72-56 AUSTIN ST
Queens,638752,Store,JAC,NOKIB INC,MANNAN SUPERMARKET,166-11,HILLSIDE AVE,,,JAMAICA,NY,11432,15000,-73.795976,40.709708,166-11 HILLSIDE AVE
Queens,638748,Store,JAC,86-02 MEAT&PRODUCE INC,KEY FOOD,86-02,NORTHERN BLVD,,,JACKSON HEIGHTS,NY,11372,18000,-73.881249,40.755946,86-02 NORTHERN BLVD
Queens,638745,Store,JAC,ISLAND OF GOLD SUPERMARKET INC,ISLAND OF GOLD SUPERMKT,195-25,69TH AVE,,,FRESH MEADOWS,NY,11365,25000,-73.777712,40.737049,195-25 69TH AVE
Queens,638675,Store,JAC,BOGOPA 58-01 LLC,FOOD BAZAAR,58-01,JUNCTION BLVD,,,ELMHURST,NY,11373,20000,-73.865306,40.735602,58-01 JUNCTION BLVD
Queens,638599,Store,JAC,GEMSTONE SUPERMARKETS INC,KEY FOOD 1046,183-14,HILLSIDE AVE,,,JAMAICA,NY,11432,20000,-73.778343,40.71392,183-14 HILLSIDE AVE
Queens,638592,Store,JAC,BERRY FRESH FARM INC,BERRY FRESH FARM,43-26,DITMARS BLVD,,,ASTORIA,NY,11105,12000,-73.903523,40.771058,43-26 DITMARS BLVD
Queens,638479,Store,JAC,S&K GREEN GROCERIES INC,APNA BAZAR FARMERS MARK,113-18,LIBERTY AVE,,,RICHMOND HILL,NY,11419,6000,-73.828895,40.685593,113-18 LIBERTY AVE
Queens,638428,Store,JAC,CONEJO MEAT CORP,IDEAL FOOD BASKET,67-16,MYRTLE AVE,,,GLENDALE,NY,11385,10000,-73.885407,40.701572,67-16 MYRTLE AVE
Queens,638372,Store,JAC,ESPERANZA MEAT CORP,CHERRY VALLEY,84-12,97TH AVE,,,OZONE PARK,NY,11416,10000,-73.855732,40.683399,84-12 97TH AVE
Queens,638174,Store,JAC,GRANJA MEAT CORP,IDEAL FOOD BASKET,99-30,CORONA AVE,,,CORONA,NY,11368,10000,-73.862415,40.744323,99-30 CORONA AVE
Queens,638111,Store,JAC,3412 V&F FOOD CORP,C TOWN,34-12,34TH AVE,,,ASTORIA,NY,11106,10000,-73.924764,40.758512,34-12 34TH AVE
Queens,638069,Store,JAC,CRYSTAL & CHRIS FOOD CORP,C TOWN,108-54,GUY R BREWER BLVD,,,JAMAICA,NY,11433,12000,-73.790297,40.69527,108-54 GUY R BREWER BLVD
Queens,638014,Store,JAC,RCR FOOD CORP,KEY FOOD #1462,108-27,QUEENS BLVD,,,FOREST HILLS,NY,11375,15000,-73.842922,40.721205,108-27 QUEENS BLVD
Queens,637931,Store,JAC,JAMAN FOOD CORP,FINE FARE,199-11,HOLLIS AVE,,,HOLLIS,NY,11412,5000,,,199-11 HOLLIS AVE
Queens,637903,Store,JAC,CALVI SUPERMARKET INC,C TOWN 024,107-66,CROSSBAY BLVD,,,OZONE PARK,NY,11417,15000,-73.84398,40.67718,107-66 CROSSBAY BLVD
Queens,637900,Store,JAC,GRAND MEAT CORP,MASPETH MARKETPLACE BY,66-17,GRAND AVE,,,MASPETH,NY,11378,10000,-73.898098,40.724451,66-17 GRAND AVE
Queens,637779,Store,JAC,TRIPLE FOOD CORP,CITY FRESH MARKET,39-09,103RD ST,,,CORONA,NY,11368,8000,-73.862787,40.750061,39-09 103RD ST
Queens,637652,Store,JAC,DAR FOOD CORP,GREEN VALLEY OF SUNNYSI,44-07,GREENPOINT AVE,,,SUNNYSIDE,NY,11104,9800,-73.920522,40.741542,44-07 GREENPOINT AVE
Queens,637594,Store,JAC,FLUSHING MARKET INC,FLUSHING MARKET,144-50,NORTHERN BLVD,,,FLUSHING,NY,11354,20000,-73.821607,40.764833,144-50 NORTHERN BLVD
Queens,637529,Store,JAC,FT 4620 FOOD CORP,KEY FOOD 1454,46-20,108TH ST,,,CORONA,NY,11368,7000,-73.856718,40.746759,46-20 108TH ST
Queens,637433,Store,JAC,333 J&M FOOD CORP,ASSOCIATED,333,SENECA AVE,,,RIDGEWOOD,NY,11385,12000,-73.915584,40.70748,333 SENECA AVE
Queens,637197,Store,JAC,SARMAN FOOD CORP,C TOWN,108-79,ROOSEVELT AVE,,,CORONA,NY,11368,5000,-73.856057,40.751549,108-79 ROOSEVELT AVE
Queens,637134,Store,JAC,AMAL MEAT CORP,C TOWN,169-13,HILLSIDE AVE,,,JAMAICA,NY,11432,7000,-73.792875,40.710818,169-13 HILLSIDE AVE
Queens,637069,Store,JAC,STOP&SHOP SUPERMARKET CO LLC THE,STOP&SHOP 539,89-89,UNION TNPK,,,GLENDALE,NY,11385,40000,-73.85763,40.705871,89-89 UNION TNPK
Queens,637050,Store,JAC,RL FOOD CORP,KEY FOOD #1428,116-34,QUEENS BLVD,,,FOREST HILLS,NY,11375,9000,-73.832822,40.715308,116-34 QUEENS BLVD
Queens,636948,Store,JAC,MARKELLA CORP,EURO MARKET,30-42,31ST STREET,,,ASTORIA,NY,11102,5000,-73.922297,40.765775,30-42 31ST STREET
Queens,636891,Store,JAC,M&D 21 FOOD CORP,KEY FOOD,44-65,21ST ST,,,LONG ISLAND CITY,NY,11101,8000,-73.94745,40.747845,44-65 21ST ST
Queens,636884,Store,JAC,DEIRDRE MAEVES SUPERMARKET INC,DEIRDRE MAEVES SPRMKT,202-36,ROCKAWAY PT BLVD,,,ROCKAWAY POINT,NY,11697,5000,-73.891767,40.565106,202-36 ROCKAWAY PT BLVD
Queens,636862,Store,JAC,GEMSTONE SUPERMARKETS INC,KEY FOOD 1044,164-05,69TH AVE,,,FRESH MEADOWS,NY,11365,20000,-73.804553,40.733083,164-05 69TH AVE
Queens,636798,Store,JAC,D&T MINI DELICATESSEN INC,DAVE&TONY SALUMERIA,35-18,30TH AVE,,,ASTORIA,NY,11103,5000,-73.917578,40.765108,35-18 30TH AVE
Queens,636771,Store,JAC,YOUJIN CORP,C TOWN,81-29,LEFFERTS BLVD,,,KEW GARDENS,NY,11415,5000,-73.830448,40.708863,81-29 LEFFERTS BLVD
Queens,636738,Store,JAC,42-15 FOOD CORP,KEY FOOD SUPERMARKET,42-15,30TH AVE,,,ASTORIA,NY,11103,9000,-73.912832,40.762875,42-15 30TH AVE
Queens,636452,Store,JAC,89-02 FOOD CORP,TRADE FAIR 9,89-02,37TH AVE,,,JACKSON HEIGHTS,NY,11372,15000,-73.877337,40.750476,89-02 37TH AVE
Queens,636362,Store,JAC,ME-ME SUPERMARKET INC,CITY FRESH MARKET,21-15,BROADWAY,,,ASTORIA,NY,11106,11000,-73.930847,40.764757,21-15 BROADWAY
Queens,636259,Store,JAC,DEVIN FOOD CORP,IDEAL FOOD BASKET,148-40,HILLSIDE AVE,,,JAMAICA,NY,11435,5000,-73.807523,40.706325,148-40 HILLSIDE AVE
Queens,636073,Store,JAC,82-10 BAXTER AVE FOOD CORP,FOOD UNIVERSE,82-10,BAXTER AVE,,,ELMHURST,NY,11373,8000,-73.883161,40.746817,82-10 BAXTER AVE
Queens,635922,Store,JAC,GOLD CITY SUPERMARKET INC,GOLD CITY SUPERMARKET,46-31,KISSENA BLVD,,,FLUSHING,NY,11355,15000,-73.818227,40.749785,46-31 KISSENA BLVD
Queens,635881,Store,JAC,CRESCENT FOOD CORP,TRADE FAIR SUPERMARKETS,23-55,BROADWAY,,,ASTORIA,NY,11106,20000,-73.928699,40.763571,23-55 BROADWAY
Queens,635807,Store,JAC,FOOD CONNECTION II INC,MET FOODS,79-15,ELIOT AVE,,,MIDDLE VILLAGE,NY,11379,14000,-73.879476,40.724878,79-15 ELIOT AVE
Queens,635802,Store,JAC,REVO FOOD CORP,IDEAL FOOD BASKET,108-02,OTIS AVE,,,CORONA,NY,11368,5000,-73.853722,40.741275,108-02 OTIS AVE
Queens,635549,Store,JAC,PENZO FOOD CORP,BRAVO SUPERMARKET 043,90-30,ROOSEVELT AVE,,,JACKSON HEIGHTS,NY,11372,12000,-73.875878,40.74848,90-30 ROOSEVELT AVE
Queens,635507,Store,JAC,TANIA&LEENA LLC,C TOWN 041069,110-14,FARMERS BLVD,,,ST ALBANS,NY,11412,8000,-73.766526,40.702821,110-14 FARMERS BLVD
Queens,635153,Store,JAC,FOOD JUNGLE INC,FOOD WORLD/KEY FOOD,119-14,SUTPHIN BLVD.,,,JAMAICA,NY,11434,15000,-73.791438,40.678588,119-14 SUTPHIN BLVD.
Queens,635057,Store,JAC,A&E FOOD CO INC,BEST YET,19-30,37TH ST,,,ASTORIA,NY,11105,32000,-73.901647,40.778649,19-30 37TH ST
Queens,634927,Store,JAC,A&Z MILK FARM CORP,GOURMET MINI MARKET,60-44,55TH ST,,,MASPETH,NY,11378,7700,-73.910876,40.715087,60-44 55TH ST
Queens,634915,Store,JAC,SEAFOOD KING INC,SEAFOOD KING,117-07,LIBERTY AVE,,,RICHMOND HILL,NY,11419,5000,-73.825881,40.685939,117-07 LIBERTY AVE
Queens,634763,Store,JAC,32-11 CHANNEL FOOD CORP,FOOD UNIVERSE,32-11,BEACH CHANNEL DR,,,FAR ROCKAWAY,NY,11691,10000,-73.766785,40.598297,32-11 BEACH CHANNEL DR
Queens,634735,Store,JAC,C&A SUPERMARKET INC,C&A SUPERMARKET,41-41,KISSENA BLVD,,,FLUSHING,NY,11355,15000,-73.828319,40.757807,41-41 KISSENA BLVD
Queens,634717,Store,JAC,MERRICK MEAT FARMS INC,MERRICK MEAT FARMS,234-21,MERRICK BLVD,,,LAURELTON,NY,11422,10000,,,234-21 MERRICK BLVD
Queens,634687,Store,JAC,ROCKAWAY PRODUCE INC,FARMBOY COUNTRY MARKET,127-20,ROCKAWAY BLVD,,,SOUTH OZONE PARK,NY,11420,12000,-73.810545,40.675187,127-20 ROCKAWAY BLVD
Queens,634663,Store,JAC,116-15 GMV CORP,VITELIO'S MARKETPLACE/K,116-15,METROPOLITAN AVE,,,KEW GARDENS,NY,11415,10000,-73.835501,40.707303,116-15 METROPOLITAN AVE
Queens,634606,Store,JAC,RYAN FOOD CORP,KEYFOOD,105-35,64TH RD,,,FOREST HILLS,NY,11375,15000,-73.850138,40.732008,105-35 64TH RD
Queens,634576,Store,JAC,JUN&JEONG FARM INC,DOUBLE J,168-02,UNION TPKE,,,FLUSHING,NY,11366,13000,-73.800148,40.722902,168-02 UNION TPKE
Queens,634512,Store,JAC,BOGOPA GATES INC,FOOD BAZAAR,1590,GATES AVE,,,RIDGEWOOD,NY,11385,25000,-73.910894,40.700836,1590 GATES AVE
Queens,634313,Store,JAC,4125 MEAT CORP,FINE FARE,41-25,102ND ST,,,CORONA,NY,11368,5000,-73.863207,40.747832,41-25 102ND ST
Queens,633982,Store,JAC,DOLCO FOOD CORP,KEYFOOD 1732,102-02,101ST AVE,,,OZONE PARK,NY,11416,5000,-73.840591,40.685804,102-02 101ST AVE
Queens,633958,Store,JAC,CHUNG FAT SUPERMARKET INC,CHUNG FAT SUPERMARKET,41-82,MAIN ST,,,FLUSHING,NY,11355,25000,-73.828385,40.755648,41-82 MAIN ST
Queens,633906,Store,JAC,RASPBERRY FARM MARKET INC,RASPBERRY FARM,150-15,14TH AVE,,,WHITESTONE,NY,11357,7000,-73.813094,40.789005,150-15 14TH AVE
Queens,633905,Store,JAC,SUN HUI FOOD CORP,C TOWN,94-06,63RD DR,,,REGO PARK,NY,11374,10000,-73.863085,40.728933,94-06 63RD DR
Queens,633819,Store,JAC,WALGREEN EASTERN CO INC,WALGREENS #01572,44-15,KISSENA BLVD,,,FLUSHING,NY,11355,10000,-73.8223,40.753476,44-15 KISSENA BLVD
Queens,633765,Store,JAC,TARGET CORPORATION,TARGET 1150,135-05,20TH AVE,,,COLLEGE POINT,NY,11356,25000,-73.833353,40.781664,135-05 20TH AVE
Queens,633759,Store,JAC,102-14 FOOD CORP,KEY FOOD,102-14,37TH AVE,,,CORONA,NY,11368,10000,-73.86476,40.753169,102-14 37TH AVE
Queens,633730,Store,JAC,SEOUL SHOPPING INC,HANYANG SUPERMARKET,150-51,NORTHERN BLVD,,,FLUSHING,NY,11354,15000,-73.813322,40.765153,150-51 NORTHERN BLVD
Queens,633549,Store,JAC,A&A MINIMARKET INC,A&A MINIMARKET,115-18,95TH AVE,,,S RICHMOND HILL,NY,11419,16000,-73.829834,40.691629,115-18 95TH AVE
Queens,633340,Store,JAC,HAN HEE INC,HAN AH REAM MARKET,59-18,WOODSIDE AVE,,,WOODSIDE,NY,11377,10000,-73.905331,40.745341,59-18 WOODSIDE AVE
Queens,633335,Store,JAC,RNJ FOOD STORE INC,TOWER FRUIT MARKET,272-72,GRAND CENTRAL PKWY,,,FLORAL PARK,NY,11005,7500,-73.716395,40.759245,272-72 GRAND CENTRAL PKWY
Queens,633195,Store,JAC,GURABO PRODUCE CORP,CITY FRESH MARKET,45-02,JUNCTION BLVD,,,CORONA,NY,11368,10000,-73.867809,40.744552,45-02 JUNCTION BLVD
Queens,633159,Store,JAC,JGF NY CORP,GREEN FARM,89-01,165TH ST,,,JAMAICA,NY,11432,8000,-73.796176,40.707479,89-01 165TH ST
Queens,633139,Store,JAC,HCTK CORP,FOOD UNIVERSE,117-01,LIBERTY AVE,,,RICHMOND HILL,NY,11419,6000,-73.825935,40.685933,117-01 LIBERTY AVE
Queens,632985,Store,JAC,S&K VEGETABLES CORP,APNA BAZAR CASH&CARRY,72-20,37TH AVE,,,JACKSON HEIGHTS,NY,11372,8500,-73.89312,40.748818,72-20 37TH AVE
Queens,632960,Store,JAC,37TH AVE MARKET INC,FOOD BAZAAR,35-60,JUNCTION BLVD,,,CORONA,NY,11368,20000,-73.871364,40.752538,35-60 JUNCTION BLVD
Queens,632649,Store,JAC,REGO PARK AJ MET INC,FOODTOWN,97-36,63RD RD,,,REGO PARK,NY,11374,12000,-73.859832,40.731476,97-36 63RD RD
Queens,632561,Store,JAC,GOLDEN KEY FOOD STORE INC,ASSOCIATED 166,37-15,31ST AVE,,,GRAND STATION,NY,11103,20000,-73.918566,40.762012,37-15 31ST AVE
Queens,632553,Store,JAC,BEACH CONVENIENCE STORE LTD,PICKLES&PIES,202,BEACH 116TH ST,,,ROCKAWAY PARK,NY,11694,5000,-73.837201,40.579963,202 BEACH 116TH ST
Queens,632432,Store,JAC,NEW YORK MART ELMHURST INC,NEW YORK MART,75-01,BROADWAY,,,ELMHURST,NY,11373,14000,-73.890127,40.746129,75-01 BROADWAY
Queens,632390,Store,JAC,FLUSHING 4424 SUPERMARKET CORP,FOOD PLUS,44-24,KISSENA BLVD,,,FLUSHING,NY,11355,20000,-73.82182,40.753076,44-24 KISSENA BLVD
Queens,632372,Store,JAC,LOREEN FOOD CORP,TRADE FAIR 5,37-11,DITMARS BLVD,,,ASTORIA,NY,11105,6700,-73.907331,40.773751,37-11 DITMARS BLVD
Queens,632223,Store,JAC,R&M GLATT SUPERMARKET 108 ST CORP,R&M GLATT SUPERMARKET,63-64,108TH ST,,,FOREST HILLS,NY,11375,6000,-73.84978,40.733278,63-64 108TH ST
Queens,632217,Store,JAC,LIC MARKET CORP,FINE FAIR,7-Oct,41ST AVE,,,LONG ISLAND CITY,NY,11101,5000,-73.945344,40.755489,44841 41ST AVE
Queens,632169,Store,JAC,BOGOPA-JUNCTION INC,FOOD BAZAAR,34-20,JUNCTION BLVD,,,JACKSON HEIGHTS,NY,11372,11000,-73.872433,40.754555,34-20 JUNCTION BLVD
Queens,631926,Store,JAC,JAY JAHAL INC,PATEL BROTHERS,251-08,HILLSIDE AVE,,,BELLEROSE,NY,11426,8000,-73.71629,40.735636,251-08 HILLSIDE AVE
Queens,631906,Store,JAC,AMAMA FOOD CORP,COMPARE FOOD MARKET,77-20,JAMAICA AVE,,,WOODHAVEN,NY,11421,5000,-73.864099,40.691812,77-20 JAMAICA AVE
Queens,631683,Store,JAC,SALAT MEAT & GROCERY CORP,C TOWN,75-43,METROPOLITAN AVE,,,MIDDLE VILLAGE,NY,11379,12000,-73.876023,40.713071,75-43 METROPOLITAN AVE
Queens,631491,Store,JAC,TOP LINE MEAT MARKET INC,TOP LINE MEAT MARKET,81-37,BROADWAY,,,ELMHURST,NY,11373,6000,-73.883523,40.743227,81-37 BROADWAY
Queens,631435,Store,JAC,CORO FOOD CORP,TRADE FAIR 4,49-11,30TH AVE,,,WOODSIDE,NY,11377,16000,-73.907249,40.760269,49-11 30TH AVE
Queens,630835,Store,JAC,TRADE BETTER SUPERMARKET CORP,BRAVO SUPERMARKET,109-06,JAMAICA AVE,,,RICHMOND HILL,NY,11418,12000,-73.838518,40.695983,109-06 JAMAICA AVE
Queens,630800,Store,JAC,JJR 66-82 FOOD CORP,CHECOS FOOD UNIVERSE,66-82,FRESH POND RD,,,RIDGEWOOD,NY,11385,6000,-73.896842,40.706294,66-82 FRESH POND RD
Queens,630696,Store,JAC,PJ 37 FOOD CORP,C TOWN,85-08,37TH AVE,,,JACKSON HEIGHTS,NY,11372,15000,-73.881448,40.750046,85-08 37TH AVE
Queens,630536,Store,JAC,BAYCHESTER SUPERMARKET CORP,C TOWN 041023,98-02,JAMAICA AVE,,,WOODHAVEN,NY,11421,25000,-73.847456,40.694826,98-02 JAMAICA AVE
Queens,630531,Store,JAC,HAN NAM CHAIN CORP,H MART,141-40,NORTHERN BLVD,,,FLUSHING,NY,11354,12000,-73.824245,40.764517,141-40 NORTHERN BLVD
Queens,630496,Store,JAC,CHARLES SCATTURO&SONS INC,SCATURRO SUPERMARKET,84-39,JAMAICA AVE,,,WOODHAVEN,NY,11421,20000,-73.859489,40.692486,84-39 JAMAICA AVE
Queens,630415,Store,JAC,HMSM SUPERMARKETS INC,FOOD UNIVERSE,102-21,QUEENS BLVD,,,FOREST HILLS,NY,11375,12000,-73.850931,40.725819,102-21 QUEENS BLVD
Queens,630089,Store,JAC,MS FAMILY FOOD CORP,C-TOWN SUPERMARKET,142-36,FOCH BLVD,,,JAMAICA,NY,11436,10000,-73.798503,40.679022,142-36 FOCH BLVD
Queens,630036,Store,JAC,FARM BOY MARKET INC,KEY FOOD 1310,108-16,LIBERTY AVE,,,S RICHMOND HILL,NY,11419,10000,-73.83347,40.683827,108-16 LIBERTY AVE
New York,629457,Store,JAC,UNIV 45 FRUIT & VEGETABLE CORP,EPICUREAN MARKET,45,UNIVERSITY PL,,,NEW YORK,NY,10003,30000,-73.994101,40.732369,45 UNIVERSITY PL
New York,629425,Store,JAC,FORAGERS HOLDINGS LLC,FORAGERS CITY GROCERS,300,W 22ND ST,,,NEW YORK,NY,10011,12000,-73.999226,40.744734,300 W 22ND ST
New York,629421,Store,JAC,111 HUDSON MARKET INC,HUDSON MARKET,111,HUDSON ST,,,NEW YORK,NY,10013,5000,-74.008641,40.71966,111 HUDSON ST
New York,629362,Store,JAC,RIVINGTONS ORCHARD LLC,CORNER GROCERS,140,ORCHARD ST,,,NEW YORK,NY,10002,5000,-73.989198,40.720125,140 ORCHARD ST
New York,629358,Store,JAC,GORIS GROCERS MADISON AVE CORP,NYC FRESH MARKET,1660,MADISON AVE,,,NEW YORK,NY,10029,8000,-73.947388,40.796506,1660 MADISON AVE
New York,629305,Store,JAC,DUANE READE ET AL PTRS,DUANE READE #14486,2069,BROADWAY,,,NEW YORK,NY,10023,17000,-73.982115,40.778443,2069 BROADWAY
New York,629279,Store,JAC,2589 WESTSIDE MARKETS LLC,WESTSIDE MARKET,2589,BROADWAY,,,NEW YORK,NY,10025,10000,-73.971068,40.795801,2589 BROADWAY
New York,629184,Store,JAC,DUANE READE ET AL PTRS,DUANE READE #14345,460,8TH AVE,,,NEW YORK,NY,10001,5000,-73.993724,40.751843,460 8TH AVE
New York,629158,Store,JAC,70-72 MEAT&PRODUCE CORP,FOOD UNIVERSE MARKET PL,70-72,NAGLE AVE,,,NEW YORK,NY,10040,5000,-73.928343,40.860276,70-72 NAGLE AVE
New York,629140,Store,JAC,DUANE READE ETAL PTRS,DUANE READE #14485,40,WALL ST,,,NEW YORK,NY,10005,10000,-74.010004,40.706688,40 WALL ST
New York,629113,Store,JAC,ELM HEALTH CHELSEA CORP,ELM WELLNESS,56,7TH AVE,,,NEW YORK,NY,10011,10000,-73.99979,40.73841,56 7TH AVE
New York,629102,Store,JAC,D&S PRODUCE INC,MET SUPERMARKET,160,E 110TH,,,NEW YORK,NY,10029,16000,-73.943826,40.794554,160 E 110TH
New York,629013,Store,JAC,PRIME ESSENTIALS LLC,PRIME ESSENTIALS,345,BROADWAY,,,NEW YORK,NY,10013,6000,-74.004102,40.716753,345 BROADWAY
New York,628978,Store,JAC,POLO GROUNDS MEAT CORP,FINE FARE,2927,FREDERICK DOUGLAS BLVD,,,NEW YORK,NY,10039,12000,-73.936445,40.83038,2927 FREDERICK DOUGLAS BLVD
New York,628946,Store,JAC,380 LENOX MEAT CORP,PIONEER SUPERMARKET,380,MALCOLM X BLVD,,,NEW YORK,NY,10027,12000,-73.943311,40.810626,380 MALCOLM X BLVD
New York,628945,Store,JAC,57 BAYARD MEAT MARKET INC,57 BAYARD MEAT MARKET,57,BAYARD ST,,,NEW YORK,NY,10013,6000,-73.997748,40.715369,57 BAYARD ST
New York,628927,Store,JAC,FOODEX LLC,GRACEFULLY,101,WEST END AVE,,,NEW YORK,NY,10023,6000,-73.988004,40.774979,101 WEST END AVE
New York,628917,Store,JAC,CENTRAL PARK NORTH MEAT LLC,FINE FARE,37,LENOX AVE,,,NEW YORK,NY,10026,8000,-73.95172,40.799359,37 LENOX AVE
New York,628911,Store,JAC,UNCLE JOHNNY GROCERY CORP,UNCLE JOHNNY GROCERY,55-57,AVENUE D,,,NEW YORK,NY,10009,14000,-73.977452,40.721746,55-57 AVENUE D
New York,628838,Store,JAC,DUANE READE ET AL PTRS,DUANE READE #14465,949,3RD AVE,,,NEW YORK,NY,10022,24200,-73.967569,40.760213,949 3RD AVE
New York,628822,Store,JAC,12 EAST FF CORP,BREAD & HONEY,941,8TH AVE,,,NEW YORK,NY,10019,8000,-73.983539,40.765814,941 8TH AVE
New York,628776,Store,JAC,EATALY NY LLC,EATALY,200,5TH AVE,,,NEW YORK,NY,10010,45000,-73.988673,40.742787,200 5TH AVE
New York,628762,Store,JAC,TARGET CORP,TARGET 2380,517,E 117TH ST,,,NEW YORK,NY,10035,5000,-73.931932,40.795426,517 E 117TH ST
New York,628751,Store,JAC,DAGOSTINOS MARKETS LLC,DAGOSTINOS SUPERMARKETS,1233,LEXINGTON AVE,,,NEW YORK,NY,10028,14000,-73.956855,40.777738,1233 LEXINGTON AVE
New York,628661,Store,JAC,MR 2497 FOOD CORP,FINE FARE,2497,7TH AVE,,,NEW YORK,NY,10030,5000,-73.939062,40.821497,2497 7TH AVE
New York,628603,Store,JAC,NAMDOR INC,GRISTEDES 34,907,8TH AVE,,,NEW YORK,NY,10019,9000,-73.983912,40.765314,907 8TH AVE
New York,628578,Store,JAC,535 8TH AVENUE CORP,7-ELEVEN STORE 39308A,535,8TH AVE,,,NEW YORK,NY,10018,10000,-73.992243,40.753883,535 8TH AVE
New York,628461,Store,JAC,135 FUTURE L&M CORP,FINE FARE,24,W 135TH ST,,,NEW YORK,NY,10037,19000,-73.93905,40.813346,24 W 135TH ST
New York,628248,Store,JAC,PRAYOSHA 202 INC,PRAYOSHA 202,202,MOTT ST,,,NEW YORK,NY,10012,6000,-73.995534,40.721414,202 MOTT ST
New York,628242,Store,JAC,1411-6 FRUIT & VEGETABLE CORP,MERCI MARKET,1411,6TH AVE,,,NEW YORK,NY,10019,7000,-73.976825,40.764856,1411 6TH AVE
New York,628182,Store,JAC,A&C 2541 MEAT CORP,PIONEER SUPERMARKET,2541,ADAM CLAYTON POWELL JR BLVD,,,NEW YORK,NY,10039,10000,-73.937428,40.823724,2541 ADAM CLAYTON POWELL JR BLVD
New York,628166,Store,JAC,A&C SUPERMAS INC,ASSOCIATED SUPERMARKET,2444,7TH AVE,,,NEW YORK,NY,10030,5000,-73.94043,40.819925,2444 7TH AVE
New York,628153,Store,JAC,96 DAN MEAT MARKET INC,DAN SUPERMARKET 2,96,SHERMAN AVE,,,NEW YORK,NY,10034,20000,-73.925368,40.863815,96 SHERMAN AVE
New York,628137,Store,JAC,WESTERLY HEALTH FOODS INC,WESTERLY HEALTH FOODS,911-913,8TH AVE,,,NEW YORK,NY,10019,5000,-73.984128,40.765023,911-913 8TH AVE
New York,628133,Store,JAC,KAY MARKET INC,KAY MARKET,645,BROADWAY,,,NEW YORK,NY,10012,10000,-73.995749,40.726688,645 BROADWAY
New York,628033,Store,JAC,ROSANNA FOOD CORP,KEY FOOD SUPERMARKET,592,LENOX AVE,,,NEW YORK,NY,10037,27000,-73.938566,40.817126,592 LENOX AVE
New York,627958,Store,JAC,POST FOOD CORP,IDEAL MARKETPLACE,317,9TH AVE,,,NEW YORK,NY,10001,15000,-73.998814,40.749924,317 9TH AVE
New York,627954,Store,JAC,HONG KONG SPRMKT - HESTER ST CORP,HONG KONG SUPERMARKET,157,HESTER ST,,,NEW YORK,NY,10013,19000,-73.996089,40.717506,157 HESTER ST
New York,627880,Store,JAC,EL GALLO MEAT MARKET INC,COMPARE FOODS,538,W 138TH ST,,,NEW YORK,NY,10031,15000,-73.953305,40.821865,538 W 138TH ST
New York,627845,Store,JAC,WHOLE FOODS MARKET GROUP INC,WHOLE FOODS MKT 10245,270,GREENWICH ST,,,NEW YORK,NY,10007,20000,-74.011168,40.715415,270 GREENWICH ST
New York,627691,Store,JAC,DUANE READE ETAL PTRS,DUANE READE #14404,1657,BROADWAY,,,NEW YORK,NY,10019,18000,-73.983358,40.762501,1657 BROADWAY
New York,627516,Store,JAC,DAGOSTINOS MARKETS LLC,DAGOSTINOS SUPERMARKETS,1507,YORK AVE,,,NEW YORK,NY,10075,13000,-73.950044,40.771923,1507 YORK AVE
New York,627439,Store,JAC,180 MARKETPLACE INC,JUBILEE MARKET,180,RIVERSIDE BLVD,,,NEW YORK,NY,10069,17000,-73.988442,40.778519,180 RIVERSIDE BLVD
New York,627389,Store,JAC,ERNST KLEIN 6TH AVE FOOD CORP,ERNST KLEIN&COMPANY,1366,6TH AVE,,,NEW YORK,NY,10019,10000,-73.977871,40.763399,1366 6TH AVE
New York,627354,Store,JAC,NEW KAM MAN LLC,NEW KAM MAN,200,CANAL ST,,,NEW YORK,NY,10013,10000,-73.998278,40.716955,200 CANAL ST
New York,627331,Store,JAC,SABANA MEAT CORP,COMPARE FOODS,309,E 115TH ST,,,NEW YORK,NY,10029,20000,-73.937688,40.796068,309 E 115TH ST
New York,627102,Store,JAC,560 WEST MEAT&PRODUCE CORP,C TOWN,560,W 125TH ST,,,NEW YORK,NY,10027,9000,-73.957547,40.814783,560 W 125TH ST
New York,627059,Store,JAC,LEX34 FRUIT&VEGETABLE CORP,LEX34 FRUIT&VEGETABLE,136,E 34TH ST,,,NEW YORK,NY,10016,5000,-73.979498,40.746321,136 E 34TH ST
New York,626943,Store,JAC,RANCHOS FOOD CORP,COLUMBUS FOODMARKET,71-81,W 104TH ST,,,NEW YORK,NY,10025,10000,-73.962986,40.797561,71-81 W 104TH ST
New York,626736,Store,JAC,BOGOPA MADISON LLC,FINE FARE SUPERMARKET,1718,MADISON AVE,,,NEW YORK,NY,10029,10000,-73.946059,40.798327,1718 MADISON AVE
New York,626656,Store,JAC,DUANE READE ETAL PTRS,DUANE READE,1370,AVENUE OF THE AMERICAS,,,NEW YORK,NY,10019,6000,-73.977834,40.76345,1370 AVENUE OF THE AMERICAS
New York,626640,Store,JAC,NAMDOR INC,GRISTEDES 511,500,COLUMBUS AVE 84TH ST,,,NEW YORK,NY,10024,18000,,,500 COLUMBUS AVE 84TH ST
New York,626637,Store,JAC,NAMDOR INC,GRISTEDES 543,3,SHERIDAN SQ W 4TH ST,,,NEW YORK,NY,10014,13000,,,3 SHERIDAN SQ W 4TH ST
New York,626627,Store,JAC,DUANE READE ETAL PTRS,DUANE READE #14223,661,8TH AVE,,,NEW YORK,NY,10036,5000,-73.989641,40.757462,661 8TH AVE
New York,626544,Store,JAC,NAMDOR INC,GRISTEDES 533,748,2ND AVE,,,NEW YORK,NY,10017,7500,-73.97301,40.748739,748 2ND AVE
New York,626480,Store,JAC,MANDELL FOOD STORES INC,KEY FOOD 566,52,AVENUE A,,,NEW YORK,NY,10009,18000,-73.984987,40.724059,52 AVENUE A
New York,626351,Store,JAC,DUANE READE ETAL PTRS,DUANE READE 14169,155,E 34TH ST,,,NEW YORK,NY,10016,17000,-73.978689,40.745978,155 E 34TH ST
New York,626220,Store,JAC,GOLDEN PINEAPPLE AVE D CORP,COMPARE STR #687,71-75,AVENUE D,,,NEW YORK,NY,10009,6000,-73.976962,40.722405,71-75 AVENUE D
New York,626140,Store,JAC,TAN TIN HUNG CORP,TAN TIN HUNG SUPERMARKT,121,BOWERY,,,NEW YORK,NY,10002,6000,-73.994948,40.718134,121 BOWERY
New York,626050,Store,JAC,ROSAN FOOD CORP,FINE FARE SUPERMARKET,1891,3RD AVE,,,NEW YORK,NY,10029,15000,-73.945311,40.790703,1891 3RD AVE
New York,625796,Store,JAC,JUNCALITO MEAT&PRODUCE INC,CITY FRESH MARKET,2212,3RD AVE,,,NEW YORK,NY,10035,5000,-73.937849,40.800917,2212 3RD AVE
New York,625709,Store,JAC,2451 BROADWAY MARKET INC,BARZINIS,2451,BROADWAY,,,NEW YORK,NY,10024,16000,-73.974344,40.791325,2451 BROADWAY
New York,625639,Store,JAC,1239 FOOD CORP,KEY FOOD,1239,SAINT NICHOLAS AVE,,,NEW YORK,NY,10032,12000,-73.938102,40.843341,1239 SAINT NICHOLAS AVE
New York,625575,Store,JAC,MANI MARKET PLACE INC,MANI MARKET PLACE,697,COLUMBUS AVE,,,NEW YORK,NY,10025,10000,-73.968561,40.791422,697 COLUMBUS AVE
New York,625364,Store,JAC,NAMDOR INC,GRISTEDES 437,1343,LEXINGTON AVE,,,NEW YORK,NY,10128,14000,-73.954052,40.781563,1343 LEXINGTON AVE
New York,625300,Store,JAC,BETTER FRUIT INC,CENTRAL MARKETS,220,MANHATTAN AVE,,,NEW YORK,NY,10025,10000,-73.959917,40.800781,220 MANHATTAN AVE
New York,625284,Store,JAC,756 JOMO FOOD CORP,FOODTOWN,756,ST NICHOLAS AVE,,,NEW YORK,NY,10031,25000,-73.943312,40.826015,756 ST NICHOLAS AVE
New York,625278,Store,JAC,DUANE READE ET AL PTRS,DUANE READE,4,AMSTERDAM AVE,,,NEW YORK,NY,10023,7000,-73.98753,40.770554,4 AMSTERDAM AVE
New York,625171,Store,JAC,ECONOMY CANDY CORP,ECONOMY CANDY TOO,108,RIVINGTON ST,,,NEW YORK,NY,10002,5000,-73.98793,40.719946,108 RIVINGTON ST
New York,625150,Store,JAC,DAGOSTINOS MARKETS LLC,DAGOSTINOS SUPERMARKETS,966,1ST AVE AT 53RD ST,,,NEW YORK,NY,10022,13000,,,966 1ST AVE AT 53RD ST
New York,625021,Store,JAC,IDI PROJECTS INC,SUNRISE MART SOHO,492-494,BROOME ST,,,NEW YORK,NY,10013,7000,-74.00259,40.723128,492-494 BROOME ST
New York,625013,Store,JAC,WALGREEN EASTERN CO INC,WALGREENS #06160,350,FIFTH AVE,,,NEW YORK,NY,10018,18000,-73.98383,40.749459,350 FIFTH AVE
New York,624937,Store,JAC,PS MEAT CORP,C TOWN,238,WEST 116TH ST,,,NEW YORK,NY,10026,8000,-73.954185,40.803924,238 WEST 116TH ST
New York,624928,Store,JAC,LUNA BROTHERS INC,C TOWN,3632,BROADWAY,,,NEW YORK,NY,10031,18000,-73.948171,40.829362,3632 BROADWAY
New York,624652,Store,JAC,VILLAGE ENTERPRISES LLC,CITARELLA,424,6TH AVE,,,NEW YORK,NY,10011,15000,-73.99905,40.734302,424 6TH AVE
New York,624469,Store,JAC,OWNERS KID FOOD CORP,ASSOCIATED SUPERMARKET,123,AVENUE C,,,NEW YORK,NY,10009,5000,-73.978457,40.724615,123 AVENUE C
New York,624461,Store,JAC,FARE FARM FOOD CORP,FINE FARE SUPERMARKET,4776,BROADWAY,,,NEW YORK,NY,10034,15000,-73.926534,40.865794,4776 BROADWAY
New York,624408,Store,JAC,NAMDOR INC,GRISTEDES 562,307,W 26TH ST,,,NEW YORK,NY,10001,11000,-73.997447,40.74736,307 W 26TH ST
New York,624289,Store,JAC,NUVE MIGUEL CORP,KEY FOOD,755,AMSTERDAM AVE,,,NEW YORK,NY,10025,7500,-73.969986,40.794578,755 AMSTERDAM AVE
New York,624280,Store,JAC,117 CORONA MEAT CORP,FINE FARE,136,LENOX AVE,,,NEW YORK,NY,10026,20000,-73.949275,40.802449,136 LENOX AVE
New York,624011,Store,JAC,DAGOSTINOS MARKETS LLC,DAGOSTINOS SUPERMARKETS,815,10TH AVE,,,NEW YORK,NY,10019,15000,-73.989801,40.767427,815 10TH AVE
New York,623983,Store,JAC,LENOX & 132ND FOOD CORP,ASSOCIATED,448,LENOX AVE,,,NEW YORK,NY,10037,20000,-73.941958,40.812492,448 LENOX AVE
New York,623948,Store,JAC,DUANE READE ET AL PTRS,DUANE READE,625,8TH AVE  CONCOURSE LEVEL,,,NEW YORK,NY,10018,8000,-73.990466,40.7563,625 8TH AVE  CONCOURSE LEVEL
New York,623913,Store,JAC,BROS FOOD SUPERMARKET CORP,C-TOWN,188,AVENUE C,,,NEW YORK,NY,10009,16000,-73.976423,40.727406,188 AVENUE C
New York,623739,Store,JAC,KATAGIRI&CO INC,KATAGIRI,224,E 59TH ST,,,NEW YORK,NY,10022,5000,-73.965281,40.761003,224 E 59TH ST
New York,623684,Store,JAC,CHELSEA MARKET BASKETS LTD,CHELSEA MARKET BASKETS,75,9TH AVE,,,NEW YORK,NY,10011,5000,-74.004466,40.742227,75 9TH AVE
New York,623658,Store,JAC,TAN & WHITE SUPERMARKET INC,MORTON WILLIAMS SUPERMA,130,BLEECKER ST,,,NEW YORK,NY,10012,26000,-73.998552,40.727867,130 BLEECKER ST
New York,623623,Store,JAC,BATTERY PARK CTY GOURMET MKT INC,BTTRY PK CTY GRMT MKT,450,NORTH END AVE,,,NEW YORK,NY,10281,7000,-74.014081,40.717269,450 NORTH END AVE
New York,623533,Store,JAC,FRANKS GOURMET MARKET INC,FRANKS MARKET,807-809,W 187TH ST,,,NEW YORK,NY,10033,6000,-73.937337,40.855253,807-809 W 187TH ST
New York,623442,Store,JAC,SILVER&WHITE MARKETS INC,MORTON WILLIAMS SPRMKTS,278,PARK AVE S,,,NEW YORK,NY,10010,9000,-73.987052,40.739363,278 PARK AVE S
New York,623380,Store,JAC,DAGOSTINOS MARKETS LLC,DAGOSTINOS SUPERMARKETS,633,COLUMBUS AVE,,,NEW YORK,NY,10024,30000,-73.970213,40.789173,633 COLUMBUS AVE
New York,623286,Store,JAC,TALA FOOD MARKET INC,BUTTERFIELD MARKET,1114,LEXINGTON AVE,,,NEW YORK,NY,10075,5000,-73.959513,40.774098,1114 LEXINGTON AVE
New York,623259,Store,JAC,JANICO FOOD CORP,FOOD TOWN,2463,FREDERICK DOUGLAS BLVD,,,NEW YORK,NY,10027,15000,-73.94796,40.814585,2463 FREDERICK DOUGLAS BLVD
New York,623254,Store,JAC,JKJ CORP,ASSOCIATED SUPERMARKET,13-15,W 100TH ST,,,NEW YORK,NY,10025,18000,-73.963507,40.794467,13-15 W 100TH ST
New York,623250,Store,JAC,GARDEN OF EDEN GOURMET INC,GARDEN OF EDEN,7,E 14TH ST,,,NEW YORK,NY,10003,8000,-73.992688,40.735611,7 E 14TH ST
New York,623096,Store,JAC,FRESH BAGELS FARMERS MARKET INC,AMISH MARKET,240,E 45TH ST,,,NEW YORK,NY,10017,13000,-73.971361,40.751985,240 E 45TH ST
New York,623062,Store,JAC,DOWNTOWN FOOD CORP,C TOWN,5,ST JAMES PL,,,NEW YORK,NY,10038,5000,-74.000498,40.71101,5 ST JAMES PL
New York,622587,Store,JAC,LINA FOOD CORP,C TOWN,4918-26,BROADWAY,,,NEW YORK,NY,10034,25000,-73.921818,40.867484,4918-26 BROADWAY
New York,622503,Store,JAC,3550 FOOD CORP,KEY FOOD SUPERMARKET,3550,BROADWAY,,,NEW YORK,NY,10031,15000,-73.950032,40.826838,3550 BROADWAY
New York,622457,Store,JAC,ELIS MANHATTAN WAREHOUSE INC,ELIS,1411,3RD AVE,,,NEW YORK,NY,10028,28000,-73.956654,40.775136,1411 3RD AVE
New York,622451,Store,JAC,111 SECOND FOOD CORP,MET FOODS,107-113,2ND AVE,,,NEW YORK,NY,10003,12000,-73.988311,40.727698,107-113 2ND AVE
New York,622342,Store,JAC,BRONZE&WHITE MARKETS INC,MORTON WILLIAMS,917,9TH AVE.,,,NEW YORK,NY,10019,5432,-73.984974,40.768926,917 9TH AVE.
New York,622272,Store,JAC,SCHALLER MANUFACTURING CORP,SCHALLER & WEBER,1654,2ND AVE,,,NEW YORK,NY,10028,7000,-73.951882,40.777671,1654 2ND AVE
New York,622262,Store,JAC,CITARELLA EAST,CITARELLA,1313,3RD AVE,,,NEW YORK,NY,10021,25000,-73.959053,40.771861,1313 3RD AVE
New York,622188,Store,JAC,F&V FOOD CORP,XCELLENTE SUPERMARKET,1568,ST NICHOLAS AVE,,,NEW YORK,NY,10040,7000,-73.930197,40.854154,1568 ST NICHOLAS AVE
New York,622053,Store,JAC,MADISON PRODUCE CORP,PATRICK MURPHYS MARKET,1307,MADISON AVE,,,NEW YORK,NY,10128,8000,-73.955722,40.785081,1307 MADISON AVE
New York,621950,Store,JAC,DAGOSTINOS MARKETS LLC,DAGOSTINOS SUPERMARKETS,1074,LEXINGTON AVE,,,NEW YORK,NY,10021,10000,-73.960393,40.772891,1074 LEXINGTON AVE
New York,621936,Store,JAC,COLUMBUS FOODS INC,PIONEER,289,COLUMBUS AVE,,,NEW YORK,NY,10023,20000,-73.977974,40.778543,289 COLUMBUS AVE
New York,621804,Store,JAC,NAMDOR INC,GRISTEDES 59,1446,2ND AVE,,,NEW YORK,NY,10075,14000,-73.956272,40.771653,1446 2ND AVE
New York,621785,Store,JAC,NAMDOR INC,GRISTEDES 82,25,UNIVERSITY PL,,,NEW YORK,NY,10003,15000,-73.994538,40.731861,25 UNIVERSITY PL
New York,621472,Store,JAC,530 FOOD CORP,KEY FOODS,530,AMSTERDAM AVE,,,NEW YORK,NY,10024,11000,-73.975184,40.78745,530 AMSTERDAM AVE
New York,621143,Store,JAC,GREAT WAY FOODS INC,KEY FOOD 790,4365,BROADWAY,,,NEW YORK,NY,10033,15000,-73.933842,40.853886,4365 BROADWAY
New York,621104,Store,JAC,GLENDA FOOD CORP,OZZIE'S FRESH MARKET,592,FT WASHINGTON AVE,,,NEW YORK,NY,10033,22000,-73.936957,40.854926,592 FT WASHINGTON AVE
New York,621084,Store,JAC,DAGOSTINOS MARKETS LLC,DAGOSTINOS SUPERMARKET,790,GREENWICH ST,,,NEW YORK,NY,10014,10000,-74.006485,40.737181,790 GREENWICH ST
New York,621080,Store,JAC,DAGOSTINOS MARKETS LLC,DAGOSTINOS SUPERMARKETS,341,3RD AVE,,,NEW YORK,NY,10010,6000,-73.982063,40.740313,341 3RD AVE
New York,621042,Store,JAC,NAMDOR INC,GRISTEDES 524,2610,FDR DR&WATERSIDE,,,NEW YORK,NY,10010,8000,,,2610 FDR DR&WATERSIDE
New York,621015,Store,JAC,3011 GROCERY INC,C TOWN,3320,BROADWAY,,,NEW YORK,NY,10031,20000,-73.95524,40.8197,3320 BROADWAY
New York,620982,Store,JAC,KBC FOOD CORP,C TOWN,1721-27,1ST AVE,,,NEW YORK,NY,10128,24000,-73.9478,40.778999,1721-27 1ST AVE
New York,620902,Store,JAC,KSP SUPERMARKET INC,FOOD UNIVERSE MARKETPLA,1486,LEXINGTON AVE,,,NEW YORK,NY,10128,14000,-73.951035,40.785737,1486 LEXINGTON AVE
New York,620836,Store,JAC,LIBERATO GROCERY INC,LIBERATO FOOD MARKET,359,AUDUBON AVE,,,NEW YORK,NY,10033,6000,-73.931335,40.850104,359 AUDUBON AVE
New York,620681,Store,JAC,AMISH MANHATTAN FARMERS MKT INC,AMISH MARKET,731,9TH AVE,,,NEW YORK,NY,10019,20000,-73.989179,40.763151,731 9TH AVE
New York,620528,Store,JAC,ORANGE & WHITE MARKETS INC,MORTON WILLIAMS SUPRMKT,1565,1ST AVE,,,NEW YORK,NY,10028,8800,-73.951469,40.774001,1565 1ST AVE
New York,620463,Store,JAC,TRIBECA VILLAGE FARM INC,MORGANS MARKET,13,HUDSON ST,,,NEW YORK,NY,10013,5000,-74.009189,40.716353,13 HUDSON ST
New York,620450,Store,JAC,2330 MEAT&PRODUCE CORP,FINE FARE SUPERMARKET,2330,1ST AVE,,,NEW YORK,NY,10035,14500,-73.933718,40.798312,2330 1ST AVE
New York,620432,Store,JAC,GRAY&WHITE MARKETS INC,MORTON WILLIAMS SPRMKT,908,2ND AVE,,,NEW YORK,NY,10017,12000,-73.969236,40.753892,908 2ND AVE
New York,620134,Store,JAC,545 GRAND FOOD CORP,FINE FARE SUPERMARKET,545,GRAND ST,,,NEW YORK,NY,10002,20000,-73.98047,40.714122,545 GRAND ST
Kings,619984,Store,JAC,786 FLATBUSH FOOD CORP,KEY FOOD,786,FLATBUSH AVENUE ATTN:  SAM OT,,,BROOKLYN,NY,11226,7000,-73.959471,40.653668,786 FLATBUSH AVENUE ATTN:  SAM OT
Kings,619960,Store,JAC,JD 840 EAST NEW YORK FOOD CORP,IDEAL FOOD BASKET,840,E NEW YORK AVE,,,BROOKLYN,NY,11203,16000,-73.93488,40.662552,840 E NEW YORK AVE
Kings,619700,Store,JAC,BETTER CLASS FOODS INC,PEOPLES CHOICE,41,BELMONT AVE,,,BROOKLYN,NY,11212,30000,-73.908935,40.668642,41 BELMONT AVE
Kings,619689,Store,JAC,PICK QUICK FOODS INC,KEY FOOD 16,4320,5TH AVE,,,BROOKLYN,NY,11232,20000,-74.006494,40.648771,4320 5TH AVE
Kings,619516,Store,JAC,KAJ MEAT CORP,IDEAL FOOD BASKET,631,GATES AVE,,,BROOKLYN,NY,11221,6000,-73.941447,40.687264,631 GATES AVE
Kings,619505,Store,JAC,PRIMA GROUP INC,SMART COST,255,KING HWY,,,BROOKLYN,NY,11223,5000,-73.981211,40.605297,255 KING HWY
Kings,619500,Store,JAC,SNL MEAT&PRODUCE CORP,KEY FOOD 1588,599,AVENUE Z,,,BROOKLYN,NY,11223,20000,-73.971741,40.586052,599 AVENUE Z
Kings,619451,Store,JAC,159-MP CORP,FOODTOWN,159,N 3RD ST,,,BROOKLYN,NY,11211,9000,-73.95959,40.715242,159 N 3RD ST
Kings,619358,Store,JAC,GALA APPLE INTERNATIONAL INC,GALA APPLE INTL,4112,18TH AVE,,,BROOKLYN,NY,11218,20000,-73.974858,40.631832,4112 18TH AVE
Kings,619307,Store,JAC,GREEN ACRES FARMS INC,GREEN ACRES FARMS,1160,UTICA AVE,,,BROOKLYN,NY,11203,8000,-73.929575,40.644174,1160 UTICA AVE
Kings,619272,Store,JAC,PEAS&PICKLES FARM CORP,PEAS&PICKLES FARM,45-55,WASHINGTON ST,,,BROOKLYN,NY,11201,5700,-73.989591,40.702923,45-55 WASHINGTON ST
Kings,619083,Store,JAC,NOSTRAND MEAT CORP,MEAT PLACE THE,1889-95,NOSTRAND AVE,,,BROOKLYN,NY,11226,10000,-73.948371,40.63957,1889-95 NOSTRAND AVE
Kings,619075,Store,JAC,261 FOOD CORP,FINE FARE SUPERMARKET,261,KINGSTON AVE,,,BROOKLYN,NY,11213,5000,-73.942062,40.670752,261 KINGSTON AVE
Kings,619061,Store,JAC,VECERRO FOOD CORP,IDEAL FOOD BASKET,4806,CHURCH AVE,,,BROOKLYN,NY,11203,16000,-73.932139,40.651657,4806 CHURCH AVE
Kings,619012,Store,JAC,CHEFS CHOICE CASH&CARRY FD DT INC,CHEFS CHOICE CASH&CARRY,1051,UTICA AVE,,,BROOKLYN,NY,11203,23500,-73.929944,40.647564,1051 UTICA AVE
Kings,618981,Store,JAC,EAST 93RD ST FOOD CORP,BRAVO SUPERMARKET,80,E 93RD ST,,,BROOKLYN,NY,11212,5000,-73.929007,40.664308,80 E 93RD ST
Kings,618921,Store,JAC,ROYAL SEAFOOD MARKET INC,NET COST MARKET,2339,65TH ST,,,BROOKLYN,NY,11204,8000,-73.978191,40.611893,2339 65TH ST
Kings,618756,Store,JAC,GALLINA MEAT CORP,IDEAL FOOD BASKET,2036,BEDFORD AVE,,,BROOKLYN,NY,11226,6000,-73.956271,40.654751,2036 BEDFORD AVE
Kings,618747,Store,JAC,CHERRY VALLEY MARKET PLACE,CHERRY VALLEY MARKET,925,CRESCENT ST,,,BROOKLYN,NY,11208,10500,-73.867361,40.664809,925 CRESCENT ST
Kings,618704,Store,JAC,639 GRAND ST MT&PRODUCE CORP,OZZIE'S FRESHMARKET,639,GRAND ST,,,BROOKLYN,NY,11211,6000,-73.946525,40.711396,639 GRAND ST
Kings,618695,Store,JAC,KUN KEE TRADING INC,KUN KEE TRADING,157,MORGAN AVE,,,BROOKLYN,NY,11237,10000,-73.933108,40.709575,157 MORGAN AVE
Kings,618476,Store,JAC,2257 EAST 16 CORP,NET COST MARKET,2257,E 16TH ST,,,BROOKLYN,NY,11229,6000,-73.954812,40.595428,2257 E 16TH ST
Kings,618360,Store,JAC,AS FULTON FOOD CORP,BRAVO SUPERMARKET,1299,FULTON ST,,,BROOKLYN,NY,11216,5000,-73.949248,40.680377,1299 FULTON ST
Kings,618319,Store,JAC,SWEET-NES ENTERPRISE INC,SWEET-NES ENTERPRISE,5414,NEW UTRECHT AVE,,,BROOKLYN,NY,11219,11000,-73.995338,40.632052,5414 NEW UTRECHT AVE
Kings,618272,Store,JAC,PERALTA-BUENO CORP,ASSOCIATED,2578-80,PITKIN AVE,,,BROOKLYN,NY,11208,6000,-73.876962,40.674678,2578-80 PITKIN AVE
Kings,618268,Store,JAC,ALMONTE MILL FOOD CORP,KEY FOOD,6620,AVENUE U,,,BROOKLYN,NY,11234,10000,-73.910273,40.61778,6620 AVENUE U
Kings,618214,Store,JAC,PARK NATURAL&ORGANIC PRODUCE INC,PARK HEALTH FOODS,350,COURT ST,,,BROOKLYN,NY,11231,6000,-73.995968,40.682226,350 COURT ST
Kings,618083,Store,JAC,MOUNTAIN FRUIT OF AVE M INC,MOUNTAIN FRUIT,1523,AVENUE M,,,BROOKLYN,NY,11230,10500,-73.959269,40.618092,1523 AVENUE M
Kings,617894,Store,JAC,CHERRY HILL GOURMET INC,CHERRY HILL GOURMET,1901,EMMONS AVE,,,BROOKLYN,NY,11235,12000,-73.949011,40.583652,1901 EMMONS AVE
Kings,617866,Store,JAC,602 PRODUCE & MEAT CORP,FINE FARE,602,LIVONIA AVE,,,BROOKLYN,NY,11207,5800,-73.894733,40.664652,602 LIVONIA AVE
Kings,617837,Store,JAC,SEA TOWN BROOKLYN LLC,SEA TOWN FISH&MEAT MKT,328,LINDEN ST,,,BROOKLYN,NY,11237,6000,-73.913958,40.698927,328 LINDEN ST
Kings,617812,Store,JAC,IMMORTAL RISE INC,C TOWN 41484,4705,5TH AVE,,,BROOKLYN,NY,11220,5000,-74.008759,40.646624,4705 5TH AVE
Kings,617749,Store,JAC,KARI MEAT CORP,AMERICAS FOOD BASKET,2220,ATLANTIC AVE,,,BROOKLYN,NY,11233,6000,-73.912742,40.676376,2220 ATLANTIC AVE
Kings,617731,Store,JAC,LA CANA FOOD CORP,C TOWN,346,CENTRAL AVE,,,BROOKLYN,NY,11221,6500,-73.919704,40.69498,346 CENTRAL AVE
Kings,617700,Store,JAC,RED APPLE TREE INC,KEY FOOD,169,ATLANTIC AVE,,,BROOKLYN,NY,11201,7500,-73.994099,40.690168,169 ATLANTIC AVE
Kings,617646,Store,JAC,VACA MEAT CORP,IDEAL FOOD BASKET,830,LAFAYETTE AVE,,,BROOKLYN,NY,11221,8000,-73.939352,40.691258,830 LAFAYETTE AVE
Kings,617589,Store,JAC,NAMDOR INC,GRISTEDES 544,101,CLARK ST,,,BROOKLYN,NY,11201,8000,-73.992142,40.697231,101 CLARK ST
Kings,617548,Store,JAC,ALEXAS FOOD CORP,STEVES C TOWN 041010,329,9TH ST,,,BROOKLYN,NY,11215,13000,-73.985452,40.668762,329 9TH ST
Kings,617416,Store,JAC,1966 K FOOD LLC,FOODTOWN #603,1958,RALPH AVE,,,BROOKLYN,NY,11234,10000,-73.918462,40.630103,1958 RALPH AVE
Kings,617379,Store,JAC,GOURMET BOUTIQUE OF NY LLC,GOURMET BOUTIQUE OF NY,3688,NOSTRAND AVE,,,BROOKLYN,NY,11229,6400,-73.940685,40.594111,3688 NOSTRAND AVE
Kings,617286,Store,JAC,MEGA MART LLC,CHESTNUT,700,MYRTLE AVE,,,BROOKLYN,NY,11205,10000,-73.955772,40.694623,700 MYRTLE AVE
Kings,617192,Store,JAC,CHANG FA FOOD MARKET INC,CHANG FA FOOD MARKET,1418,AVENUE U,,,BROOKLYN,NY,11229,6000,-73.956743,40.598802,1418 AVENUE U
Kings,617034,Store,JAC,ROSSMAN FRUIT&VEGT DIST INC,ROSSMAN FARMS,770,3RD AVE,,,BROOKLYN,NY,11232,15000,-74.000562,40.661388,770 3RD AVE
Kings,616973,Store,JAC,YIDEL'S FRESH FOOD STATION LLC,YIDELS SHOPPING CART,4921,12TH AVE,,,BROOKLYN,NY,11219,7200,-73.994753,40.635926,4921 12TH AVE
Kings,616814,Store,JAC,DUANE READE ET AL PTRS,DUANE READE,16,COURT ST,,,BROOKLYN,NY,11201,10000,-73.990501,40.693588,16 COURT ST
Kings,616805,Store,JAC,CHARLES SCATURRO&SONS INC,SCATURRO,6301,11TH AVE,,,BROOKLYN,NY,11219,10000,-74.005003,40.629525,6301 11TH AVE
Kings,616785,Store,JAC,331 EUSEBIO FOOD CORP,BRAVO SUPERMARKET,331,MYRTLE AVE,,,BROOKLYN,NY,11205,10000,-73.973552,40.693277,331 MYRTLE AVE
Kings,616705,Store,JAC,953 MANHATTAN FOOD CORP,C TOWN SUPERMARKET,953,MANHATTAN AVE,,,BROOKLYN,NY,11222,12000,-73.954546,40.731925,953 MANHATTAN AVE
Kings,616669,Store,JAC,AVE D FINEST MEAT CORP,BROOKLYN #2 MEAT MARKET,4212,AVENUE D,,,BROOKLYN,NY,11203,6000,-73.936616,40.641681,4212 AVENUE D
Kings,616640,Store,JAC,JB 366 FOOD CORP,BRAVO SUPERMARKET,366,NEW LOTS AVE,,,BROOKLYN,NY,11207,5000,-73.893665,40.661586,366 NEW LOTS AVE
Kings,616589,Store,JAC,DHY SONAMOO LLC,KEY FOOD,9530,CHURCH AVE,,,BROOKLYN,NY,11212,25000,-73.915628,40.655569,9530 CHURCH AVE
Kings,616466,Store,JAC,AMIS FOOD LLC,KEY FOOD 1370,651,NOSTRAND AVE.,,,BROOKLYN,NY,11216,40000,-73.950028,40.674823,651 NOSTRAND AVE.
Kings,616458,Store,JAC,486 HENRY STREET SUPERMARKET INC,KEY FOODS 180,486,HENRY ST,,,BROOKLYN,NY,11231,5000,-73.999187,40.68458,486 HENRY ST
Kings,616424,Store,JAC,82 FOOD CORP,82 FOOD,800,ROCKAWAY AVE,,,BROOKLYN,NY,11212,8000,-73.908331,40.660251,800 ROCKAWAY AVE
Kings,616356,Store,JAC,KHIMS MILLENNIUM MARKET VI INC,KHIMS MILLENNIUM MARKET,460,DRIGGS AVE,,,BROOKLYN,NY,11211,7000,-73.954237,40.719085,460 DRIGGS AVE
Kings,616354,Store,JAC,KOSHER GARDEN INC THE,POMEGRANATE,1507,CONEY ISLAND AVE,,,BROOKLYN,NY,11230,18000,-73.964302,40.620468,1507 CONEY ISLAND AVE
Kings,616349,Store,JAC,TARGET CORP,TARGET 1849,139,FLATBUSH AVE,,,BROOKLYN,NY,11217,15000,-73.977536,40.684201,139 FLATBUSH AVE
Kings,616244,Store,JAC,BOGOPA ST JOHNS INC,FOOD BAZAAR,1682,ST JOHNS PL,,,BROOKLYN,NY,11233,18000,-73.921555,40.670075,1682 ST JOHNS PL
Kings,616150,Store,JAC,FR-ES PRODUCE INC,CHERRY VALLEY MARKET,381,MOTHER GASTON BLVD,,,BROOKLYN,NY,11212,20000,-73.906873,40.669643,381 MOTHER GASTON BLVD
Kings,616111,Store,JAC,RUTLAND MEAT & PRODUCE CORP,FOOD UNIVERSE,1036,RUTLAND RD,,,BROOKLYN,NY,11212,5000,-73.925306,40.66337,1036 RUTLAND RD
Kings,616021,Store,JAC,GOLDEN KEY 2 CORP,GOLDEN KEY,1067,BRIGHTON BEACH AVE,,,BROOKLYN,NY,11235,5000,-73.957571,40.578252,1067 BRIGHTON BEACH AVE
Kings,615920,Store,JAC,BOGOPA JUNIUS INC,FOOD BAZAAR,417,JUNIUS ST,,,BROOKLYN,NY,11212,47000,-73.90161,40.664288,417 JUNIUS ST
Kings,615851,Store,JAC,FRANKLIN AVENUE MEAT CORP,FOODTOWN OF CROWN HEIGH,905-13,FRANKLIN AVE,,,BROOKLYN,NY,11225,9000,-73.959066,40.667633,905-13 FRANKLIN AVE
Kings,615720,Store,JAC,MERMAID MEAT CORP,FINE FARE,2901,MERMAID AVE,,,BROOKLYN,NY,11224,20000,-73.995907,40.575385,2901 MERMAID AVE
Kings,615640,Store,JAC,PARK SLOPE FOOD COOP INC,PARK SLOPE FOOD COOP,782,UNION ST,,,BROOKLYN,NY,11215,12000,-73.976663,40.674932,782 UNION ST
Kings,615567,Store,JAC,ALYAMANI GROCERY INC,MARINELLOS,114,WYCKOFF AVE,,,BROOKLYN,NY,11237,7000,-73.918349,40.703753,114 WYCKOFF AVE
Kings,615555,Store,JAC,RANIA FOOD CORP,C TOWN,7924,FLATLANDS AVE,,,BROOKLYN,NY,11236,10000,-73.913564,40.635276,7924 FLATLANDS AVE
Kings,615412,Store,JAC,BC FOOD CORP,BROOKLYN FARE,200,SCHERMERHORN ST,,,BROOKLYN,NY,11201,8000,-73.985267,40.688671,200 SCHERMERHORN ST
Kings,615228,Store,JAC,CHIVO MEAT CORP,IDEAL FOOD BASKET,720,WASHINGTON AVE,,,BROOKLYN,NY,11238,7000,-73.96347,40.676263,720 WASHINGTON AVE
Kings,615064,Store,JAC,M&D GROCERY INC,SHOP SMART,2640,NOSTRAND AVE,,,BROOKLYN,NY,11210,8000,-73.945641,40.62023,2640 NOSTRAND AVE
Kings,615053,Store,JAC,SEATIDE GOURMET INC,SEATIDE GOURMET,5914,AVENUE N,,,BROOKLYN,NY,11234,5000,-73.917675,40.619524,5914 AVENUE N
Kings,615048,Store,JAC,RAINBOW PAPER SALES INC,PAPERIFIC,1465,38TH ST,,,BROOKLYN,NY,11218,15000,-73.981796,40.638829,1465 38TH ST
Kings,614896,Store,JAC,GSA KING TOMATO FARM INC,KING TOMATO,1140,MCDONALD AVE,,,BROOKLYN,NY,11230,5000,-73.976134,40.625353,1140 MCDONALD AVE
Kings,614817,Store,JAC,OLD WILLIAMSBURG FOOD INC,FRANKELS KOSHER MARKET,192,CLYMER ST,,,BROOKLYN,NY,11211,5000,-73.962446,40.707328,192 CLYMER ST
Kings,614625,Store,JAC,208 CRESCENT MEAT&PRODUCE INC,KEY FOOD,208,CRESCENT ST,,,BROOKLYN,NY,11208,12000,-73.872377,40.684277,208 CRESCENT ST
Kings,614609,Store,JAC,ARLINGTON SUPERMARKET CORP,ASSOCIATED FOOD STORE,52,ARLINGTON AVE,,,BROOKLYN,NY,11207,5000,-73.892828,40.679632,52 ARLINGTON AVE
Kings,614587,Store,JAC,16TH ST COOPERATIVE CORP,FLATBUSH FOOD COOP,1415,CORTELYOU RD,,,BROOKLYN,NY,11226,6000,-73.964607,40.641134,1415 CORTELYOU RD
Kings,614478,Store,JAC,JUNCALITO ABAJO MEAT CORP,CITY FRESH MARKET,1380,PENNSYLVANIA AVE,,,BROOKLYN,NY,11239,35000,-73.882015,40.647985,1380 PENNSYLVANIA AVE
Kings,614387,Store,JAC,200 MALCOLM X MEAT CORP,KEY FOOD 1206,200,MALCOLM X BLVD,,,BROOKLYN,NY,11221,8000,-73.929797,40.68662,200 MALCOLM X BLVD
Kings,614312,Store,JAC,NEPTUNE FOOD CORP,KEY FOOD 1280,505,NEPTUNE AVE,,,BROOKLYN,NY,11224,10700,-73.97245,40.579885,505 NEPTUNE AVE
Kings,614264,Store,JAC,CONCORD MARKET CORP,CONCORD MARKET,91,TILLARY ST,,,BROOKLYN,NY,11201,6000,-73.986476,40.696194,91 TILLARY ST
Kings,614234,Store,JAC,242 BAYRIDGE MEAT CORP,SUPER FRESH SUPERMARKET,242,BAY RIDGE AVE,,,BROOKLYN,NY,11220,25000,-74.02739,40.636155,242 BAY RIDGE AVE
Kings,614064,Store,JAC,ASMAX FOOD INC,ASMAX FOOD,7721,FLATLANDS AVE,,,BROOKLYN,NY,11236,5000,-73.915013,40.634455,7721 FLATLANDS AVE
Kings,614049,Store,JAC,L&S 5311 FOOD CORP,CTOWN,5311,CHURCH AVE,,,BROOKLYN,NY,11203,8000,-73.927,40.65236,5311 CHURCH AVE
Kings,614000,Store,JAC,1420 FOOD LLC,FOODTOWN #602,1420,FULTON ST,,,BROOKLYN,NY,11216,30000,-73.944274,40.680107,1420 FULTON ST
Kings,613991,Store,JAC,PAPA PASQUALE RAVIOLI&PSTA CO INC,PAPA PASQUALE RAVIOLI&P,7817,15TH AVE,,,BROOKLYN,NY,11228,6000,-74.005209,40.615556,7817 15TH AVE
Kings,613927,Store,JAC,131 DRIGGS AVENUE SUPERMARKET INC,MET FOODS,131,DRIGGS AVE,,,BROOKLYN,NY,11222,7500,-73.943838,40.723121,131 DRIGGS AVE
Kings,613819,Store,JAC,FOOD LAND MINI MARKET INC,FOOD LAND MINI MARKET,204,CORTELYOU RD,,,BROOKLYN,NY,11218,5000,-73.9772,40.638083,204 CORTELYOU RD
Kings,613775,Store,JAC,PAK O AVENUE CORP,FOOD UNIVERSE MARKET PL,97,AVENUE O,,,BROOKLYN,NY,11204,5000,-73.981404,40.610489,97 AVENUE O
Kings,613759,Store,JAC,E&W FOOD CORP,CENTRAL MARKET,50,DIVISION AVE,,,BROOKLYN,NY,11249,12000,-73.966951,40.707058,50 DIVISION AVE
Kings,613640,Store,JAC,M&M MEAT&PRODUCE II CORP,C TOWN,760,4TH AVE,,,BROOKLYN,NY,11232,5000,-73.998207,40.660387,760 4TH AVE
Kings,613613,Store,JAC,16TH AVE FOOD CORP,MITTELMAN FOOD CENTER,5024,16TH AVE,,,BROOKLYN,NY,11204,5000,-73.986577,40.630004,5024 16TH AVE
Kings,613450,Store,JAC,POLMOST FOOD CORP,ASSOCIATED 831,802,MANHATTAN AVE,,,BROOKLYN,NY,11222,10500,-73.953153,40.727923,802 MANHATTAN AVE
Kings,613323,Store,JAC,JD 710 FOOD CORP,IDEAL FOOD BASKET SUPER,710,CONEY ISLAND AVE,,,BROOKLYN,NY,11218,20000,-73.969095,40.640292,710 CONEY ISLAND AVE
Kings,613269,Store,JAC,1967 FLATBUSH FOOD CORP,IDEAL FOOD BASKET,1967,FLATBUSH AVE,,,BROOKLYN,NY,11234,6000,-73.935924,40.621723,1967 FLATBUSH AVE
Kings,613257,Store,JAC,DAF FOOD CORP,BRAVO SUPERMARKET,991,BEDFORD AVE,,,BROOKLYN,NY,11205,5000,-73.955235,40.69002,991 BEDFORD AVE
Kings,613180,Store,JAC,FRESH SUPERMARKET,C TOWN,1176,LIBERTY AVE,,,BROOKLYN,NY,11208,6000,-73.865797,40.67889,1176 LIBERTY AVE
Kings,613032,Store,JAC,D&L FOOD CORP,C TOWN 202,239,BOND ST,,,BROOKLYN,NY,11217,6000,-73.988106,40.682112,239 BOND ST
Kings,613005,Store,JAC,B&F MARKET INC,MET FOOD,1205-1215,SUTTER AVE,,,BROOKLYN,NY,11208,10000,-73.873475,40.672549,1205-1215 SUTTER AVE
Kings,612805,Store,JAC,CHINESE CHECKERS INC,ONE STOP KOSHER,98,RUTLEDGE ST,,,BROOKLYN,NY,11211,10000,-73.959303,40.700601,98 RUTLEDGE ST
Kings,612583,Store,JAC,WESTERN BEEF RETAIL INC,WESTERN BEEF,814,JAMAICA AVE,,,BROOKLYN,NY,11208,10000,-73.874825,40.688959,814 JAMAICA AVE
Kings,612449,Store,JAC,BAYFRUIT CORP,SHEEPSHD BAY FR&VEG MKT,1717,AVENUE Z,,,BROOKLYN,NY,11235,13000,-73.95174,40.588254,1717 AVENUE Z
Kings,612227,Store,JAC,EMPIRE SUPERMARKET INC,KEY FOOD 1314,1804,RALPH AVE,,,BROOKLYN,NY,11236,12500,-73.918771,40.633133,1804 RALPH AVE
Kings,612211,Store,JAC,FEI LONG MARKET INC,FEI LONG MARKET,6301,8TH AVE,,,BROOKLYN,NY,11220,22000,-74.01161,40.633511,6301 8TH AVE
Kings,612088,Store,JAC,ALMOND FRUIT CORP,IDEAL FOOD BASKET,1488,PITKIN AVE,,,BROOKLYN,NY,11212,10000,-73.91889,40.668479,1488 PITKIN AVE
Kings,611943,Store,JAC,PARK SLOPE FOOD & MARKET CORP,ASSOCIATED,216,5TH AVE,,,BROOKLYN,NY,11215,9000,-73.980718,40.67602,216 5TH AVE
Kings,611929,Store,JAC,16TH AVENUE GROCERY INC,EINHORN'S,5222,16TH AVE,,,BROOKLYN,NY,11204,5000,-73.987734,40.62889,5222 16TH AVE
Kings,611913,Store,JAC,QUICK CHECK FOOD INC,C TOWN,6614,18TH AVE,,,BROOKLYN,NY,11204,10000,-73.991109,40.618214,6614 18TH AVE
Kings,611814,Store,JAC,JK&K SUPERMARKET INC,KEY FOODS,1610,CORTELYOU RD,,,BROOKLYN,NY,11226,8000,-73.963324,40.641713,1610 CORTELYOU RD
Kings,611627,Store,JAC,1188 FLATBUSH MEAT&PRODUCE INC,FOOD UNIVERSE,1188,FLATBUSH AVE,,,BROOKLYN,NY,11226,10000,-73.956476,40.641351,1188 FLATBUSH AVE
Kings,611589,Store,JAC,WESTERN BEEF RETAIL INC,WESTERN BEEF 39,44,EMPIRE BLVD,,,BROOKLYN,NY,11225,42000,-73.960165,40.663339,44 EMPIRE BLVD
Kings,611526,Store,JAC,HAJAR INC,KEY FOOD 1260,1905,NOSTRAND AVE,,,BROOKLYN,NY,11226,8000,-73.948338,40.639203,1905 NOSTRAND AVE
Kings,611460,Store,JAC,CHERRY HILL MARKET MGT LLC,CHERRY HILL MARKET,2284,86TH ST,,,BROOKLYN,NY,11214,6000,-73.991759,40.600681,2284 86TH ST
Kings,611142,Store,JAC,597 FOOD CORP,C TOWN,597,E 16TH ST,,,BROOKLYN,NY,11226,5000,-73.962426,40.635612,597 E 16TH ST
Kings,611124,Store,JAC,319 MEAT MARKET CORP,KEY FOOD,319,KINGS HWY,,,BROOKLYN,NY,11223,10000,-73.978477,40.604977,319 KINGS HWY
Kings,610967,Store,JAC,T&T FOOD CORP,C TOWN 207,146,E 98TH ST,,,BROOKLYN,NY,11212,7000,-73.921268,40.663507,146 E 98TH ST
Kings,610941,Store,JAC,GOURMET FRESH LLC,GOURMET FRESH,437-439,COURT ST,,,BROOKLYN,NY,11231,8400,-73.997895,40.678238,437-439 COURT ST
Kings,610912,Store,JAC,4121 CHURCH MEAT CORP,ASSOCIATED,4121,CHURCH AVE,,,BROOKLYN,NY,11203,5800,-73.93832,40.651362,4121 CHURCH AVE
Kings,610798,Store,JAC,HB&SON MEAT CORP,MARKETPLACE OF BUSHWICK,1781-1783,BROADWAY,,,BROOKLYN,NY,11207,15000,-73.909547,40.682372,1781-1783 BROADWAY
Kings,610640,Store,JAC,PICK QUICK FOODS INC,KEY FOOD 17,224,MCGUINNESS BLVD,,,BROOKLYN,NY,11222,30000,-73.951125,40.729963,224 MCGUINNESS BLVD
Kings,610637,Store,JAC,BROTHERS INTL FOOD INC,GOURMET PLAZA,1663-1669,E 13TH ST,,,BROOKLYN,NY,11229,7500,-73.960125,40.608568,1663-1669 E 13TH ST
Kings,610632,Store,JAC,NEW EASTERN II FRUIT&VGTBLES INC,NEW EASTERN II FRT&VGTB,231,NEPTUNE AVE,,,BROOKLYN,NY,11235,5000,-73.962155,40.581487,231 NEPTUNE AVE
Kings,610600,Store,JAC,5009 6TH AVE SUPERMARKET INC,CITY FRESH,5009,6TH AVE,,,BROOKLYN,NY,11220,10000,-74.008343,40.643551,5009 6TH AVE
Kings,610382,Store,JAC,ALMONTE LANDS FOOD CORP,KEY FOOD SUPERMARKET,5101,AVENUE N,,,BROOKLYN,NY,11234,10000,-73.92541,40.619044,5101 AVENUE N
Kings,610325,Store,JAC,LA ROTONDA MEAT CORP,CITY FRESH MARKET,655,STANLEY AVE,,,BROOKLYN,NY,11207,10000,-73.884144,40.659252,655 STANLEY AVE
Kings,610300,Store,JAC,KIDS AM INC,C TOWN 0255,330,GRAHAM AVE,,,BROOKLYN,NY,11211,5000,-73.944332,40.714203,330 GRAHAM AVE
Kings,610289,Store,JAC,MAX BINIK Z L CORP,KRM SUPERMARKET,1325,39TH ST,,,BROOKLYN,NY,11218,10000,-73.985664,40.640245,1325 39TH ST
Kings,610124,Store,JAC,DAVID&SONS FOOD CORP,C TOWN,241,TAAFFE PL,,,BROOKLYN,NY,11205,8000,-73.95952,40.690836,241 TAAFFE PL
Kings,610113,Store,JAC,1533 SUPERMARKET INC,KEY FOOD,1533,BROADWAY,,,BROOKLYN,NY,11221,9000,-73.916601,40.686387,1533 BROADWAY
Kings,610009,Store,JAC,MPM ENTERPRISES COURT STREET INC,UNION MARKET,288,COURT ST,,,BROOKLYN,NY,11231,10000,-73.994975,40.684275,288 COURT ST
Bronx,609927,Store,JAC,R&E CORP,C TOWN,809,SOUTHERN BLVD,,,BRONX,NY,10459,7500,-73.895764,40.816857,809 SOUTHERN BLVD
Bronx,609834,Store,JAC,JSMD FOOD CORP,C TOWN 054,100,HUGH J GRANT CIRCLE,,,BRONX,NY,10472,8000,-73.860947,40.832672,100 HUGH J GRANT CIRCLE
Bronx,609624,Store,JAC,99 CENTS FACTORY INC,99 CENTS FACTORY,278,E 149TH ST,,,BRONX,NY,10451,5000,-73.92235,40.817232,278 E 149TH ST
Bronx,609316,Store,JAC,3462 THIRD AVE FOOD CORP,ASSOCIATE SUPERMARKET,3470,3RD AVE,,,BRONX,NY,10456,14000,-73.906378,40.829897,3470 3RD AVE
Bronx,609227,Store,JAC,BLUSHAN FOODS LLC,RIVERDALE KOSHER MARKET,5683,RIVERDALE AVE,,,BRONX,NY,10471,12000,-73.904214,40.906468,5683 RIVERDALE AVE
Bronx,609146,Store,JAC,FRUITS PROD & GROC CORP,ASSOCIATED,1334,LOUIS NINE BLVD,,,BRONX,NY,10459,17500,-73.892421,40.831768,1334 LOUIS NINE BLVD
Bronx,608992,Store,JAC,CAGUEYES FOOD CORP,FINE FARE SUPERMARKET,3315,WHITE PLAINS RD,,,BRONX,NY,10467,6000,-73.867147,40.873545,3315 WHITE PLAINS RD
Bronx,608943,Store,JAC,PALMA NUEVA FOODS CORP,FOODTOWN SUPERMARKET,3471,BOSTON RD,,,BRONX,NY,10469,15000,-73.847816,40.876564,3471 BOSTON RD
Bronx,608876,Store,JAC,675 MORRIS AVE FOOD CORP,FINE FARE,675,MORRIS AVE,,,BRONX,NY,10451,5000,-73.921242,40.820746,675 MORRIS AVE
Bronx,608755,Store,JAC,3035 WHITE PLAINS FOOD CORP,PIONEER SUPERMARKET,3035,WHITE PLAINS RD,,,BRONX,NY,10467,17000,-73.86724,40.870273,3035 WHITE PLAINS RD
Bronx,608592,Store,JAC,LOS PINOS FOOD CORP,FOOD UNIVERSE MARKET PL,148,E BURNSIDE AVE,,,BRONX,NY,10453,8000,-73.904289,40.852541,148 E BURNSIDE AVE
Bronx,608584,Store,JAC,NICKS & JULIO SUPERMARKET CORP,MET FOOD MARKET DELI,1894,LAFAYETTE AVE. AKA: 769 WHIT,,,BRONX,NY,10473,6600,-73.861029,40.821648,1894 LAFAYETTE AVE. AKA: 769 WHIT
Bronx,608572,Store,JAC,TREMONT FOOD CORP,KEY FOOD 1327,2722,E TREMONT AVE,,,BRONX,NY,10461,15000,-73.84507,40.842359,2722 E TREMONT AVE
Bronx,608215,Store,JAC,1757 TJM FOOD CORP,FOOD UNIVERSE MARKETPLA,1757,RANDALL AVE,,,BRONX,NY,10473,30000,-73.865167,40.816697,1757 RANDALL AVE
Bronx,608155,Store,JAC,111 MEAT & PRODUCE INC,FOOD UNIVERSE,111,DREISER LOOP,,,BRONX,NY,10475,25000,-73.828062,40.877617,111 DREISER LOOP
Bronx,608154,Store,JAC,2061 MEAT&PRODUCE INC,FOOD UNIVERSE,2061,BARTOW AVE,,,BRONX,NY,10475,20000,-73.828311,40.869567,2061 BARTOW AVE
Bronx,608153,Store,JAC,119 MEAT&PRODUCE INC,FOOD UNIVERSE,119,EINSTEIN LOOP,,,BRONX,NY,10475,10000,-73.821713,40.86494,119 EINSTEIN LOOP
Bronx,607841,Store,JAC,HJ FAMILY FOOD CORP,C TOWN,1580,UNION PORT RD,,,BRONX,NY,10462,12000,-73.861914,40.839773,1580 UNION PORT RD
Bronx,607764,Store,JAC,WEST EAST FOOD CORP,ASSOCIATED,35,RICHMAN PLAZA,,,BRONX,NY,10453,20000,-73.922277,40.852115,35 RICHMAN PLAZA
Bronx,607578,Store,JAC,50 VAN CORTLANDT FOOD CORP,FOOD DYNASTY SUPERMKT,50,VAN CORTLANDT AVE W,,,BRONX,NY,10463,15000,-73.892898,40.883109,50 VAN CORTLANDT AVE W
Bronx,607339,Store,JAC,SIN&SIN MANAGEMENT INC,PALM TREE MARKET PLACE,3717,BOSTON POST RD,,,BRONX,NY,10466,17000,-73.840876,40.880475,3717 BOSTON POST RD
Bronx,607261,Store,JAC,EMPORIUM SUPERMARKET CORP,ASSOCIATED,148,E 170TH ST,,,BRONX,NY,10452,8000,-73.914659,40.838955,148 E 170TH ST
Bronx,606911,Store,JAC,CAMSENA MEAT CORP,MET FOOD,277,E 198TH ST,,,BRONX,NY,10458,10000,-73.888474,40.868678,277 E 198TH ST
Bronx,606778,Store,JAC,TEAMS MARKET INC,KEY FOOD,1791,WALTON AVE,,,BRONX,NY,10453,10000,-73.909904,40.848025,1791 WALTON AVE
Bronx,606703,Store,JAC,TEO FOOD CORP,ASSOCIATED SUPERMARKET,206,E 167TH ST,,,BRONX,NY,10456,15000,-73.916449,40.833936,206 E 167TH ST
Bronx,606538,Store,JAC,BOGOPA BRUCKNER INC,FOOD BAZAAR,1630,BRUCKNER BLVD,,,BRONX,NY,10473,35000,-73.874324,40.823957,1630 BRUCKNER BLVD
Bronx,606363,Store,JAC,IGUA FOOD CORP,CHERRY VALLEY MARKETPLA,421,E 189TH ST,,,BRONX,NY,10458,6000,-73.891896,40.860241,421 E 189TH ST
Bronx,606220,Store,JAC,CRUZ MEAT CORP,PIONEER SUPERMARKET,2262,JEROME AVE,,,BRONX,NY,10453,5000,-73.903897,40.858355,2262 JEROME AVE
Bronx,606156,Store,JAC,D&A 724 FOOD CORP,COMPARE FOODS,724,HUNTS PT AVE,,,BRONX,NY,10474,8000,-73.886637,40.815377,724 HUNTS PT AVE
Bronx,605815,Store,JAC,1221 FTELEY FOOD CORP,FINE FARE SUPERMARKET,1221,FTELEY AVE,,,BRONX,NY,10472,12000,-73.871794,40.830214,1221 FTELEY AVE
Bronx,605648,Store,JAC,WESTERN BEEF RETAIL INC,WESTERN BEEF 36,1564,SOUTHERN BLVD,,,BRONX,NY,10460,15000,-73.889004,40.835425,1564 SOUTHERN BLVD
Bronx,605622,Store,JAC,2556 BOSTON FOOD CORP,FINE FARE SUPERMARKET,2556,BOSTON RD,,,BRONX,NY,10467,20000,-73.863287,40.864787,2556 BOSTON RD
Bronx,605589,Store,JAC,TARGET CORP,TARGET STORE T 1798,40,W 225TH ST NO 50,,,BRONX,NY,10463,10000,-73.90831,40.873707,40 W 225TH ST NO 50
Bronx,605400,Store,JAC,FAMA FOOD CORP,C TOWN,2276,CRESTON AVE,,,BRONX,NY,10453,5000,-73.901042,40.85757,2276 CRESTON AVE
Bronx,605286,Store,JAC,CHANG LI SUPERMARKET INC,CHANG LI SUPERMARKET,2079,BENEDICT AVE,,,BRONX,NY,10462,15000,-73.855042,40.834627,2079 BENEDICT AVE
Bronx,605074,Store,JAC,MD 1511 MEAT & PRODUCE CORP,KEY FOOD SUPERMARKET,1511,METROPOLITAN AVE,,,BRONX,NY,10462,10000,-73.858817,40.839343,1511 METROPOLITAN AVE
Bronx,605037,Store,JAC,JD 248 FOOD CORP,BRAVO SUPERMARKET,248,E 174TH ST,,,BRONX,NY,10457,8000,-73.906945,40.844707,248 E 174TH ST
Bronx,604942,Store,JAC,MORRIS PARK SUPERMARKET FOOD CORP,BIG DEAL SUPERMARKET,1018,MORRIS PARK AVE,,,BRONX,NY,10462,8500,-73.855625,40.848389,1018 MORRIS PARK AVE
Bronx,604092,Store,JAC,C MARKET FOOD CORP,FOODTOWN  #647,3734-36,WHITE PLAINS RD,,,BRONX,NY,10467,8000,-73.863489,40.882395,3734-36 WHITE PLAINS RD
Bronx,603940,Store,JAC,LOS RODRIGUEZ DELI&GROCERY CORP,LOS RODRIGUEZ DELI&GROC,879,E 175TH ST.,,,BRONX,NY,10460,5000,-73.88804,40.839824,879 E 175TH ST.
Bronx,603904,Store,JAC,RIVERDALE MEAT&PRODUCE CORP,C TOWN,5249,BROADWAY,,,BRONX,NY,10463,8000,-73.908525,40.875688,5249 BROADWAY
Bronx,603841,Store,JAC,BRONX 656 FOOD CORP,KEY FOOD SUPERMARKET,656,CASTLE HILL AVE,,,BRONX,NY,10473,35000,-73.848209,40.820109,656 CASTLE HILL AVE
Bronx,603800,Store,JAC,FRUITS VEGS & MEAT CORP,PIONEER SUPERMARKET,256,ST ANNS AVE,,,BRONX,NY,10454,10000,-73.91723,40.807181,256 ST ANNS AVE
Bronx,603794,Store,JAC,VILLAS MARKET PLACE INC,GARDEN GOURMET,5665,BROADWAY,,,BRONX,NY,10463,5000,-73.903258,40.880874,5665 BROADWAY
Bronx,603659,Store,JAC,BOGOPA 170TH INC,FOOD BAZAAR,535,E 170TH ST,,,BRONX,NY,10456,10000,-73.903088,40.834913,535 E 170TH ST
Bronx,603652,Store,JAC,FT MEAT CORP,FOOD FAIR FRESH MARKET,1065,E 163RD ST,,,BRONX,NY,10459,13000,-73.890047,40.821102,1065 E 163RD ST
Bronx,603400,Store,JAC,VARGAS&RODRIGUEZ SUPERMARKET INC,FINE FARE SUPERMARKET,3131,GRAND CONCOURSE,,,BRONX,NY,10468,5000,-73.886574,40.874964,3131 GRAND CONCOURSE
Bronx,603276,Store,JAC,BOSTON POST FOOD CORP,C TOWN,4008-4010,BOSTON POST RD,,,BRONX,NY,10475,15000,-73.832372,40.884541,4008-4010 BOSTON POST RD
Bronx,603223,Store,JAC,CHARISSE&CHRISTINE ENT LTD,C TOWN,1750,UNIVERSITY AVE,,,BRONX,NY,10453,10000,-73.916975,40.849289,1750 UNIVERSITY AVE
Bronx,603070,Store,JAC,1654 METROPOLITAN FOOD CORP,FINE FARE SUPERMARKET,1654,METROPOLITAN AVE,,,BRONX,NY,10462,16000,-73.855786,40.840349,1654 METROPOLITAN AVE
Bronx,603025,Store,JAC,161 EAST MEAT CORP,ASSOCIATED SUPERMARKET,724,E 161ST ST,,,BRONX,NY,10456,14000,-73.905254,40.821452,724 E 161ST ST
Bronx,602545,Store,JAC,BATFER FOOD CORP,KEY FOOD,256,E 167TH ST,,,BRONX,NY,10456,12000,-73.91468,40.833497,256 E 167TH ST
Bronx,602513,Store,JAC,FRANCO FOOD CORP,ASSOCIATED 867,1585,WESTCHESTER AVE,,,BRONX,NY,10472,8000,-73.876095,40.829061,1585 WESTCHESTER AVE
Bronx,602258,Store,JAC,PRINCE FOOD CORP,KEY FOOD,2044,BOSTON RD,,,BRONX,NY,10460,14000,-73.879257,40.841071,2044 BOSTON RD
Bronx,602229,Store,JAC,C&R FOOD CORP,FINE FARE SUPERMARKET,708,E TREMONT AVE,,,BRONX,NY,10457,14000,-73.890625,40.845167,708 E TREMONT AVE
Bronx,602096,Store,JAC,JRL FOOD CORP,KEY FOOD,3515,JEROME AVE,,,BRONX,NY,10467,8500,-73.881721,40.882353,3515 JEROME AVE
Bronx,601621,Store,JAC,MK FOOD CORP,KEY FOODS,1535,UNIONPORT RD,,,BRONX,NY,10462,9000,-73.857418,40.836855,1535 UNIONPORT RD
Bronx,601536,Store,JAC,EAST 233 FOOD CORP,FINE FARE SUPERMARKET,1199,E 233RD ST,,,BRONX,NY,10466,14000,-73.843364,40.888923,1199 E 233RD ST
Bronx,601535,Store,JAC,48 BURNSIDE FOOD CORP,FOOD DYNASTY SUPERMARKE,40-48,W BURNSIDE AVE,,,BRONX,NY,10453,15000,-73.909218,40.853873,40-48 W BURNSIDE AVE
Bronx,601435,Store,JAC,B&ME FOOD CORP,KEY FOOD,1050,WESTCHESTER AVE,,,BRONX,NY,10459,15000,-73.891363,40.824956,1050 WESTCHESTER AVE
Bronx,601292,Store,JAC,PWP EQUITIES CORP,ASSOCIATED,1188,WEBSTER AVE,,,BRONX,NY,10456,15000,-73.91002,40.831484,1188 WEBSTER AVE
Bronx,600998,Store,JAC,PALERO FOOD CORP,FINE FARE SUPERMARKET,3550,WHITE PLAINS RD,,,BRONX,NY,10467,5500,-73.865678,40.878341,3550 WHITE PLAINS RD
Bronx,600951,Store,JAC,1489 FOOD CORP,FOODTOWN,1477-1489,WEST AVE,,,BRONX,NY,10462,5000,-73.86128,40.837245,1477-1489 WEST AVE
Bronx,600709,Store,JAC,AJC FOOD MARKET CORP,FOOD TOWN,4332,WHITE PLAINS RD,,,BRONX,NY,10466,24000,-73.855724,40.896403,4332 WHITE PLAINS RD
Bronx,600049,Store,JAC,NANIN FOOD CORP,C TOWN,2733,3RD AVE,,,BRONX,NY,10451,10000,-73.921098,40.814238,2733 3RD AVE
